{"type":"FeatureCollection","features":[{"type":"Feature","properties":{"name":"Japan","source":"Natural Earth (public domain)"},"geometry":{"type":"MultiPolygon","coordinates":[[[[129.7832,31.7996],[129.7996,31.7454],[129.7761,31.7295],[129.7293,31.6442],[129.696,31.6214],[129.6594,31.6419],[129.6554,31.6598],[129.6763,31.667],[129.7166,31.7304],[129.7536,31.7438],[129.7832,31.7996]]],[[[131.6598,32.4768],[131.6566,32.4574],[131.6891,32.4217],[131.6294,32.3868],[131.4473,31.8769],[131.4559,31.822],[131.4963,31.796],[131.4753,31.7622],[131.4505,31.6511],[131.4553,31.6209],[131.4115,31.5861],[131.3908,31.5488],[131.3937,31.491],[131.3762,31.4744],[131.3382,31.3726],[131.3182,31.3751],[131.325,31.3881],[131.2498,31.3881],[131.243,31.4223],[131.2127,31.4547],[131.1786,31.4524],[131.1506,31.4713],[131.0718,31.4496],[131.0453,31.4275],[131.0136,31.3631],[131.104,31.3288],[131.1044,31.3094],[131.0742,31.2821],[131.0926,31.2761],[131.1247,31.2883],[131.1321,31.2795],[131.0602,31.2253],[131.0082,31.2211],[130.98,31.156],[130.9407,31.1213],[130.7924,31.0778],[130.7676,31.0565],[130.7254,31.047],[130.6779,31.005],[130.6577,31.0032],[130.6633,31.0695],[130.7427,31.1213],[130.7648,31.1865],[130.7539,31.2039],[130.7897,31.2751],[130.7953,31.3444],[130.7473,31.4355],[130.7034,31.4593],[130.6925,31.4856],[130.7053,31.5288],[130.6956,31.5458],[130.6369,31.5552],[130.5909,31.586],[130.6379,31.6226],[130.6878,31.6195],[130.7117,31.6144],[130.7223,31.5973],[130.7227,31.5634],[130.7586,31.5638],[130.799,31.6117],[130.8103,31.6509],[130.8045,31.6872],[130.7764,31.7103],[130.738,31.7084],[130.686,31.7255],[130.6448,31.7147],[130.613,31.6824],[130.6022,31.6383],[130.5676,31.6007],[130.5291,31.5133],[130.5161,31.4533],[130.5627,31.3344],[130.6237,31.2756],[130.6603,31.2714],[130.6398,31.1865],[130.5864,31.1554],[130.5736,31.1674],[130.5217,31.1687],[130.4948,31.2272],[130.4511,31.2494],[130.2222,31.2463],[130.1794,31.3278],[130.2066,31.3248],[130.2078,31.3366],[130.119,31.4086],[130.1624,31.4219],[130.196,31.4121],[130.2283,31.3813],[130.2933,31.4447],[130.3345,31.5624],[130.3245,31.5867],[130.3362,31.6262],[130.3254,31.6421],[130.2593,31.7209],[130.1841,31.7587],[130.1714,31.7901],[130.1903,31.8351],[130.2351,31.8195],[130.197,31.8585],[130.2147,31.8856],[130.2204,31.9296],[130.2051,31.9717],[130.1741,31.9988],[130.173,32.0174],[130.204,32.0483],[130.204,32.0726],[130.1799,32.0935],[130.2068,32.1207],[130.2483,32.1337],[130.2787,32.1005],[130.3196,32.1182],[130.3569,32.1694],[130.3587,32.1907],[130.4617,32.3],[130.4696,32.3471],[130.5032,32.3272],[130.5125,32.3382],[130.51,32.3785],[130.562,32.4271],[130.5713,32.4519],[130.5676,32.4777],[130.5505,32.4917],[130.5701,32.5056],[130.5988,32.5054],[130.5647,32.5463],[130.6413,32.6075],[130.6683,32.6487],[130.448,32.6214],[130.5654,32.6934],[130.626,32.704],[130.592,32.7487],[130.6113,32.7855],[130.593,32.8159],[130.4413,32.9237],[130.4207,33.0876],[130.3794,33.1079],[130.3648,33.1403],[130.2904,33.1496],[130.2414,33.1882],[130.1509,33.1119],[130.1276,33.1209],[130.1605,33.0541],[130.2223,32.9752],[130.1885,32.9153],[130.1053,32.8759],[130.1536,32.8425],[130.195,32.8449],[130.2436,32.8753],[130.3073,32.8763],[130.3394,32.8566],[130.3748,32.7802],[130.3737,32.739],[130.3509,32.7041],[130.3608,32.688],[130.3056,32.6514],[130.2682,32.6504],[130.2539,32.6248],[130.2231,32.6059],[130.166,32.593],[130.1696,32.6191],[130.1295,32.6411],[130.1281,32.6839],[130.1535,32.6862],[130.1901,32.7141],[130.2103,32.7332],[130.2076,32.7522],[130.1868,32.7621],[130.1902,32.7835],[130.1784,32.7929],[130.0938,32.7949],[129.9908,32.7469],[129.9704,32.7446],[129.9585,32.7648],[129.8949,32.6627],[129.8413,32.6394],[129.8323,32.6158],[129.7829,32.5735],[129.7631,32.58],[129.7404,32.5684],[129.734,32.5809],[129.783,32.6074],[129.8145,32.6626],[129.8181,32.6774],[129.8032,32.678],[129.7969,32.6922],[129.826,32.7048],[129.8344,32.6941],[129.8591,32.7245],[129.8238,32.722],[129.771,32.814],[129.7327,32.8056],[129.687,32.8548],[129.6697,32.905],[129.6384,32.9265],[129.6324,32.9791],[129.6535,33.0043],[129.6519,33.0336],[129.6816,33.0941],[129.7202,33.079],[129.7347,33.0466],[129.7502,33.057],[129.7597,33.0479],[129.7386,33.0191],[129.7417,32.991],[129.7663,33.018],[129.797,33.0101],[129.8233,32.9795],[129.8067,32.9147],[129.7869,32.9478],[129.7899,32.9122],[129.8075,32.8859],[129.7944,32.8749],[129.8454,32.8383],[129.8832,32.8757],[130.0031,32.8454],[129.9312,32.9289],[129.9456,33.0158],[129.8814,33.0628],[129.8239,33.0431],[129.8224,33.0627],[129.7975,33.0773],[129.775,33.0583],[129.7465,33.0656],[129.7332,33.1016],[129.7492,33.0981],[129.7463,33.1249],[129.7587,33.1389],[129.7285,33.1223],[129.7229,33.1584],[129.7098,33.1626],[129.7041,33.1118],[129.6807,33.1149],[129.6665,33.1013],[129.6623,33.1265],[129.687,33.1422],[129.6528,33.1702],[129.6527,33.1903],[129.5641,33.2111],[129.5521,33.2258],[129.5653,33.2721],[129.5915,33.2834],[129.5715,33.3206],[129.5804,33.371],[129.5924,33.3811],[129.6206,33.3593],[129.6444,33.3624],[129.6732,33.3985],[129.6769,33.3624],[129.701,33.353],[129.7442,33.3643],[129.8075,33.3481],[129.8198,33.3048],[129.8516,33.28],[129.8413,33.316],[129.8463,33.348],[129.871,33.3782],[129.8687,33.3974],[129.7873,33.4545],[129.8042,33.4818],[129.8184,33.4842],[129.8489,33.4425],[129.8713,33.4429],[129.8368,33.5133],[129.8546,33.5329],[129.8532,33.5525],[129.8688,33.5394],[129.9101,33.5472],[129.9421,33.5317],[129.9613,33.5128],[129.9412,33.4795],[129.9626,33.4826],[129.9754,33.4541],[130.0169,33.4458],[130.0402,33.4612],[130.0553,33.4952],[130.168,33.5341],[130.1742,33.5469],[130.1299,33.54],[130.093,33.5734],[130.1567,33.6065],[130.1595,33.6296],[130.1978,33.6336],[130.208,33.6651],[130.2365,33.6442],[130.2314,33.6188],[130.2719,33.6117],[130.2654,33.5886],[130.2903,33.5742],[130.3153,33.5974],[130.3909,33.6049],[130.4075,33.6505],[130.3987,33.6691],[130.349,33.6411],[130.307,33.6554],[130.2893,33.6815],[130.305,33.6874],[130.3106,33.6726],[130.3455,33.6625],[130.4446,33.7182],[130.47,33.7629],[130.4496,33.8022],[130.4722,33.8175],[130.4889,33.8554],[130.5076,33.8491],[130.5482,33.8808],[130.6331,33.8825],[130.6844,33.9342],[130.7315,33.9318],[130.756,33.9437],[130.8282,33.9396],[130.8213,33.9203],[130.8614,33.9256],[130.8809,33.8959],[130.9136,33.8912],[130.9495,33.9382],[131.0071,33.9661],[131.0187,33.9563],[130.9929,33.8977],[130.9998,33.8739],[130.9846,33.874],[130.9907,33.8568],[130.9636,33.8332],[130.9617,33.8162],[131.0069,33.8131],[131.0098,33.7462],[131.0645,33.6533],[131.103,33.6243],[131.2565,33.605],[131.2838,33.5824],[131.3676,33.5748],[131.4177,33.5817],[131.4986,33.667],[131.521,33.6764],[131.59,33.683],[131.6674,33.6672],[131.7295,33.5802],[131.7373,33.4846],[131.7062,33.4096],[131.6587,33.4228],[131.6403,33.4166],[131.6346,33.374],[131.6011,33.3649],[131.5962,33.3494],[131.5562,33.3464],[131.533,33.3661],[131.506,33.3631],[131.4984,33.3407],[131.5104,33.2734],[131.5479,33.255],[131.6122,33.2529],[131.6545,33.2716],[131.7,33.2541],[131.7109,33.2702],[131.8222,33.244],[131.9026,33.266],[131.8722,33.2003],[131.831,33.1697],[131.8096,33.1276],[131.8426,33.1133],[131.8688,33.1288],[131.9115,33.1248],[131.8689,33.0943],[131.8632,33.0825],[131.8805,33.075],[131.9292,33.0683],[131.9424,33.0926],[131.9761,33.0602],[131.9915,33.069],[131.9961,33.0917],[132.0095,33.0512],[131.9296,33.0471],[131.9032,32.9831],[131.9592,32.9445],[131.9792,32.9504],[132.0139,32.9344],[132.0348,32.9513],[132.0812,32.9432],[132.0841,32.9332],[132.0255,32.9236],[131.9822,32.8889],[132.0002,32.8713],[131.9556,32.8275],[131.9978,32.8297],[131.9966,32.8105],[131.9292,32.7783],[131.8825,32.7834],[131.8559,32.6861],[131.8219,32.7027],[131.7708,32.6487],[131.7433,32.588],[131.7047,32.5816],[131.6851,32.5224],[131.7365,32.4917],[131.6955,32.4682],[131.6598,32.4768]]],[[[134.6898,33.8281],[134.7512,33.8349],[134.6519,33.7864],[134.6168,33.7826],[134.6078,33.766],[134.5794,33.7642],[134.5707,33.7364],[134.5464,33.7325],[134.5384,33.7169],[134.4573,33.6709],[134.404,33.6545],[134.3762,33.6357],[134.3886,33.6236],[134.353,33.5816],[134.3123,33.5725],[134.3137,33.5431],[134.2732,33.508],[134.2446,33.4607],[134.2145,33.3766],[134.1903,33.2483],[134.1765,33.2361],[134.1418,33.2918],[134.1062,33.2943],[134.108,33.3149],[134.0401,33.3841],[134.0255,33.4154],[133.9688,33.4357],[133.9252,33.4937],[133.7631,33.5198],[133.7394,33.5375],[133.6077,33.5158],[133.4659,33.4543],[133.4397,33.4017],[133.365,33.3876],[133.3231,33.3513],[133.326,33.3688],[133.3123,33.3756],[133.2922,33.3647],[133.2546,33.3262],[133.252,33.2947],[133.2708,33.2595],[133.2533,33.2191],[133.2153,33.1875],[133.2254,33.1591],[133.2098,33.151],[133.1901,33.1633],[133.165,33.1372],[133.0971,33.0481],[133.0978,33.0235],[133.0528,33.0395],[133.0183,33.024],[133.0017,32.987],[133.0025,32.8693],[132.9611,32.8641],[132.9551,32.8526],[132.9555,32.8146],[133.0276,32.7397],[133.028,32.7206],[133.0022,32.7117],[132.9766,32.7245],[132.9568,32.7586],[132.9151,32.778],[132.8928,32.7742],[132.8811,32.7524],[132.8584,32.7696],[132.8122,32.7403],[132.7915,32.7407],[132.7114,32.7895],[132.6646,32.7789],[132.6277,32.7521],[132.6234,32.7995],[132.7092,32.9094],[132.6184,32.9069],[132.5589,32.9368],[132.572,32.9231],[132.5242,32.9302],[132.5173,32.9094],[132.5379,32.8958],[132.5042,32.8917],[132.4723,32.9337],[132.494,32.9489],[132.4829,32.9705],[132.5015,32.9932],[132.4715,33.0407],[132.4197,33.0519],[132.3967,33.0166],[132.3824,33.0198],[132.4079,33.0693],[132.4518,33.0529],[132.4832,33.0677],[132.4627,33.0677],[132.469,33.0958],[132.4491,33.1149],[132.4758,33.1149],[132.4901,33.1328],[132.4407,33.1423],[132.438,33.1682],[132.4586,33.1737],[132.4237,33.1992],[132.3986,33.1872],[132.3947,33.2039],[132.4597,33.204],[132.4857,33.1692],[132.5051,33.1812],[132.5138,33.2133],[132.5484,33.2269],[132.5245,33.25],[132.5414,33.2626],[132.5077,33.2579],[132.4846,33.2765],[132.4847,33.2908],[132.5256,33.3147],[132.4201,33.3044],[132.3787,33.3195],[132.4155,33.3415],[132.4212,33.3756],[132.4024,33.3626],[132.3911,33.3979],[132.4081,33.4166],[132.3982,33.4313],[132.4212,33.4445],[132.3811,33.4661],[132.3078,33.4643],[132.1797,33.407],[132.1307,33.3636],[132.1016,33.3701],[132.1103,33.3867],[132.0255,33.3449],[132.0105,33.349],[132.0943,33.4085],[132.1666,33.4202],[132.1553,33.437],[132.1713,33.4456],[132.2646,33.4641],[132.4124,33.535],[132.5006,33.625],[132.6017,33.6604],[132.6766,33.7156],[132.6971,33.7567],[132.6901,33.8139],[132.7124,33.9045],[132.7549,33.9103],[132.7725,33.9559],[132.7699,33.9963],[132.8624,34.0559],[132.9191,34.0684],[132.9262,34.1117],[132.8954,34.1132],[132.8975,34.1227],[132.9288,34.1199],[132.9424,34.1413],[133.0318,34.0527],[133.0773,33.9597],[133.127,33.9333],[133.2437,33.9563],[133.2489,33.9741],[133.3226,33.9906],[133.511,33.9652],[133.5486,33.9809],[133.6209,34.0456],[133.6413,34.0792],[133.6411,34.1846],[133.5584,34.2595],[133.6092,34.239],[133.6545,34.239],[133.6726,34.2231],[133.7014,34.2313],[133.782,34.2883],[133.8742,34.3283],[133.8997,34.3642],[133.937,34.3751],[134.012,34.3488],[134.0813,34.3477],[134.1008,34.3762],[134.1169,34.3605],[134.1275,34.3898],[134.1436,34.3918],[134.1582,34.3749],[134.1663,34.3249],[134.1904,34.3254],[134.2168,34.355],[134.2713,34.3231],[134.2578,34.2942],[134.3435,34.2506],[134.3967,34.2495],[134.4398,34.2083],[134.4686,34.2075],[134.4952,34.2242],[134.5609,34.2214],[134.5942,34.2321],[134.6071,34.2508],[134.594,34.2138],[134.6103,34.216],[134.6469,34.2393],[134.6272,34.1879],[134.6078,34.1843],[134.6421,34.1793],[134.6052,34.1108],[134.6078,34.0676],[134.5946,34.0298],[134.605,34.001],[134.6243,33.9976],[134.637,34.0107],[134.6629,33.9689],[134.696,33.9519],[134.7029,33.9062],[134.6463,33.8531],[134.7171,33.848],[134.6898,33.8281]]],[[[133.1213,36.1098],[133.1354,36.0895],[133.1232,36.0629],[133.0791,36.0209],[133.0813,36.0801],[133.0935,36.1028],[133.1213,36.1098]]],[[[133.0742,36.1279],[133.0876,36.127],[133.0872,36.1108],[133.0584,36.1032],[133.0558,36.0618],[133.0449,36.0551],[133.0198,36.0606],[133.01,36.0815],[132.9904,36.0771],[133.0041,36.0483],[132.995,36.0382],[132.9494,36.062],[133.0387,36.1308],[133.0742,36.1279]]],[[[133.4222,34.445],[133.3411,34.348],[133.2817,34.3215],[133.2698,34.3224],[133.2699,34.3392],[133.3055,34.3488],[133.315,34.366],[133.3047,34.3776],[133.2585,34.3823],[133.2766,34.4018],[133.2473,34.4265],[133.2297,34.3762],[133.1821,34.3414],[133.2087,34.3078],[133.1856,34.2805],[133.161,34.2942],[133.0933,34.2526],[133.0764,34.2596],[133.0723,34.3175],[133.114,34.3518],[133.1133,34.3141],[133.1331,34.3182],[133.1475,34.3514],[133.1685,34.355],[133.1343,34.3823],[133.0933,34.3898],[133.0791,34.3823],[133.0858,34.351],[133.0591,34.3323],[132.9119,34.3148],[132.853,34.2873],[132.8362,34.3111],[132.7622,34.2703],[132.7781,34.2427],[132.7715,34.2353],[132.703,34.2255],[132.6563,34.1993],[132.6272,34.198],[132.6135,34.2185],[132.5545,34.1924],[132.5447,34.2043],[132.5598,34.2184],[132.5037,34.2873],[132.5037,34.3283],[132.531,34.3351],[132.5176,34.353],[132.4968,34.3625],[132.4416,34.35],[132.4055,34.3681],[132.346,34.3488],[132.2225,34.239],[132.2437,34.1669],[132.2389,34.1426],[132.2019,34.1086],[132.2132,33.9897],[132.1815,33.9578],[132.1356,33.9384],[132.1338,33.9134],[132.1616,33.8417],[132.0559,33.7772],[132.0414,33.7763],[132.0444,33.7933],[132.0785,33.8349],[132.0872,33.8251],[132.1089,33.8303],[132.0995,33.8723],[131.9723,33.9168],[131.9419,33.9509],[131.8521,33.9984],[131.8123,33.9714],[131.8265,33.9652],[131.7796,33.9697],[131.7775,33.9857],[131.8228,34.0267],[131.7415,34.0562],[131.6335,34.0267],[131.5933,34.0373],[131.5851,34.0267],[131.5974,34.0026],[131.5789,33.9857],[131.5676,33.9863],[131.5623,34.0046],[131.5193,34.0085],[131.4829,34.032],[131.4412,33.9789],[131.4206,33.9994],[131.4097,33.9831],[131.3933,33.9857],[131.4048,34.0173],[131.3899,34.0397],[131.3325,33.9621],[131.258,33.9248],[131.2498,33.9379],[131.2258,33.935],[131.2158,33.9508],[131.1782,33.9305],[131.1603,33.9528],[131.166,33.9771],[131.124,33.9999],[131.1032,34.0302],[131.0356,34.048],[131.014,34.0148],[130.9321,33.9454],[130.9158,33.914],[130.8794,33.9379],[130.8802,33.9504],[130.8994,33.9499],[130.9171,34.0109],[130.9053,34.0296],[130.9126,34.0533],[130.9039,34.0658],[130.8784,34.0679],[130.8616,34.1127],[130.9111,34.1545],[130.9233,34.1838],[130.8937,34.256],[130.8716,34.2792],[130.8931,34.3435],[130.8999,34.355],[130.9419,34.351],[131.0336,34.3818],[130.9551,34.4035],[130.9339,34.396],[130.9588,34.4274],[130.9764,34.439],[131.0098,34.4103],[131.0747,34.4248],[131.1339,34.4116],[131.1408,34.3785],[131.1727,34.3677],[131.1917,34.3936],[131.1713,34.4295],[131.2526,34.4374],[131.2812,34.408],[131.2295,34.4177],[131.209,34.3693],[131.3231,34.393],[131.3347,34.4161],[131.4143,34.424],[131.4133,34.4539],[131.4619,34.4993],[131.4548,34.5191],[131.5365,34.5656],[131.5573,34.6149],[131.5959,34.6168],[131.5969,34.6596],[131.6564,34.6536],[131.6803,34.6746],[131.7461,34.6754],[131.8584,34.7145],[131.8738,34.7592],[131.8963,34.7629],[132.0346,34.8766],[132.0539,34.8723],[132.0633,34.9075],[132.2365,35.0348],[132.3168,35.0623],[132.3266,35.0921],[132.3799,35.125],[132.4081,35.1751],[132.5297,35.2449],[132.5319,35.2577],[132.6387,35.2946],[132.6633,35.3295],[132.674,35.3854],[132.6708,35.3995],[132.6311,35.4198],[132.6238,35.4311],[132.6354,35.441],[132.7486,35.4515],[132.7255,35.4708],[132.8377,35.5061],[132.9697,35.517],[132.9732,35.5419],[133.0335,35.546],[133.0518,35.5737],[133.0814,35.5753],[133.0913,35.6015],[133.1565,35.5626],[133.2247,35.5829],[133.2232,35.5685],[133.2393,35.5636],[133.3088,35.5772],[133.326,35.5685],[133.2547,35.5338],[133.2647,35.4962],[133.3296,35.4655],[133.4002,35.4543],[133.4174,35.4565],[133.4412,35.491],[133.5802,35.5336],[133.7311,35.5029],[133.9115,35.5146],[134.0084,35.537],[134.0348,35.5194],[134.2378,35.5467],[134.2816,35.5649],[134.2939,35.5859],[134.3615,35.5958],[134.3765,35.6112],[134.537,35.6722],[134.5902,35.6594],[134.7983,35.6656],[134.8423,35.6454],[134.8632,35.6583],[134.927,35.6412],[134.9879,35.6898],[135.029,35.6929],[135.0858,35.726],[135.0841,35.739],[135.2268,35.7723],[135.2925,35.7117],[135.3062,35.6715],[135.2993,35.6579],[135.2792,35.6685],[135.2588,35.6568],[135.1882,35.565],[135.1883,35.5453],[135.2067,35.5415],[135.2081,35.5591],[135.2482,35.5917],[135.2534,35.5713],[135.2709,35.5629],[135.2398,35.558],[135.2387,35.542],[135.3015,35.5132],[135.3244,35.5244],[135.3355,35.5082],[135.3153,35.4668],[135.319,35.447],[135.3525,35.487],[135.4024,35.4822],[135.4024,35.507],[135.3502,35.5103],[135.3378,35.5375],[135.3613,35.5542],[135.416,35.5617],[135.4632,35.6033],[135.4524,35.5718],[135.4829,35.5592],[135.479,35.5225],[135.4956,35.5239],[135.5122,35.548],[135.511,35.4982],[135.5296,35.4927],[135.5768,35.496],[135.6489,35.5428],[135.6698,35.5344],[135.6419,35.5217],[135.6221,35.4866],[135.7244,35.4907],[135.7484,35.5137],[135.7482,35.5335],[135.7208,35.5223],[135.6916,35.5459],[135.7384,35.5705],[135.794,35.5314],[135.8343,35.5344],[135.8043,35.5752],[135.8547,35.579],[135.8117,35.6434],[135.8678,35.6178],[135.9018,35.6244],[135.9194,35.6082],[135.9509,35.6289],[135.9806,35.6305],[135.9817,35.6436],[135.9635,35.6554],[135.9744,35.6909],[135.9701,35.703],[135.9564,35.7006],[135.956,35.7283],[136.0197,35.7653],[136.0468,35.7037],[136.027,35.6809],[136.0475,35.6588],[136.0691,35.6619],[136.0924,35.7152],[136.0995,35.7757],[136.0705,35.8247],[135.9935,35.8851],[135.9944,35.9359],[135.9573,35.9731],[135.9632,35.9999],[136.0001,36.0242],[136.0436,36.1108],[136.1202,36.1998],[136.1348,36.2246],[136.1242,36.2532],[136.1967,36.2644],[136.2984,36.3473],[136.3823,36.3911],[136.64,36.6626],[136.6897,36.7308],[136.7606,36.8706],[136.7654,36.9134],[136.7504,36.9257],[136.7676,36.981],[136.7204,37.055],[136.721,37.142],[136.7086,37.1499],[136.6963,37.1364],[136.6764,37.1374],[136.6703,37.15],[136.682,37.199],[136.7056,37.2283],[136.6978,37.2395],[136.7332,37.285],[136.7215,37.3253],[136.7491,37.3579],[136.7838,37.3739],[136.8808,37.408],[136.9348,37.3995],[137.0715,37.453],[137.1138,37.4877],[137.2555,37.5246],[137.2957,37.5315],[137.3509,37.5061],[137.3512,37.4457],[137.2873,37.443],[137.2536,37.4291],[137.2374,37.3799],[137.2489,37.3573],[137.2675,37.3551],[137.2653,37.3398],[137.2302,37.2921],[137.1656,37.3008],[137.1087,37.2835],[137.0713,37.2381],[137.0707,37.2186],[137.0142,37.1849],[136.9459,37.2172],[136.96,37.2347],[136.9511,37.2345],[136.8926,37.1733],[136.8802,37.1442],[136.8957,37.1389],[136.8932,37.1175],[136.8687,37.1109],[136.8609,37.0768],[136.9336,37.0798],[136.9801,37.0469],[137.004,37.0555],[137.0243,37.0954],[137.0471,37.0988],[137.0544,36.9667],[136.9877,36.871],[137.0055,36.8359],[137.157,36.7608],[137.2987,36.757],[137.3333,36.7627],[137.3836,36.8001],[137.4195,36.8773],[137.4138,36.8969],[137.4476,36.9335],[137.4993,36.9557],[137.6833,36.988],[137.8967,37.0575],[138.0534,37.1301],[138.0975,37.1711],[138.1644,37.1617],[138.2449,37.1838],[138.3251,37.231],[138.4375,37.322],[138.5506,37.3779],[138.6597,37.5244],[138.7466,37.5969],[138.8094,37.7608],[138.8577,37.8278],[139.0682,37.9551],[139.1325,37.9588],[139.2159,37.9899],[139.3045,38.0419],[139.4251,38.1513],[139.4622,38.375],[139.4927,38.4542],[139.5992,38.6483],[139.7162,38.7457],[139.7738,38.8171],[139.8919,39.1332],[139.9168,39.2625],[139.9318,39.2871],[139.9953,39.3273],[140.0486,39.5047],[140.0593,39.7275],[140.0276,39.8245],[139.9665,39.8801],[139.9214,39.8985],[139.8775,39.8928],[139.8438,39.8618],[139.7601,39.8581],[139.7087,39.9243],[139.7042,39.9452],[139.7194,39.9521],[139.701,39.9607],[139.6977,39.9886],[139.7006,40.0056],[139.8221,39.9611],[139.8669,39.9843],[139.9042,40.0177],[139.978,40.1255],[139.9935,40.1696],[139.9886,40.1911],[140.0112,40.2355],[140.0243,40.355],[139.9461,40.4188],[139.9428,40.5446],[139.9285,40.571],[139.9152,40.5862],[139.8568,40.5902],[139.8604,40.6088],[139.9003,40.6425],[139.9258,40.6468],[139.9386,40.6698],[139.9595,40.6777],[139.9982,40.7421],[140.046,40.7678],[140.1224,40.7448],[140.198,40.7865],[140.2406,40.7835],[140.2708,40.8124],[140.3163,40.9544],[140.3219,41.0274],[140.3696,40.9861],[140.3823,40.9883],[140.3696,41.0217],[140.4078,41.0257],[140.399,41.0394],[140.3506,41.0388],[140.3407,41.05],[140.3269,41.0412],[140.3219,41.0829],[140.3002,41.1113],[140.2481,41.1234],[140.2562,41.1389],[140.304,41.1367],[140.3204,41.1498],[140.3423,41.2657],[140.4622,41.1839],[140.4837,41.1835],[140.5486,41.2262],[140.5939,41.2202],[140.6327,41.1943],[140.6427,41.1714],[140.631,41.1057],[140.6413,41.0415],[140.673,40.8956],[140.7031,40.8533],[140.7524,40.8352],[140.7992,40.8391],[140.8521,40.8838],[140.8707,40.9151],[140.8708,40.9449],[140.8405,40.953],[140.8615,40.9571],[140.8887,41.0108],[140.9487,40.9907],[140.9814,40.9598],[140.9751,40.9378],[141.0582,40.9165],[141.0837,40.8864],[141.1263,40.8729],[141.1852,40.9112],[141.2264,40.9874],[141.2464,41.1069],[141.2779,41.1553],[141.2561,41.2112],[141.2059,41.2647],[141.1612,41.2785],[141.137,41.2467],[141.1591,41.2567],[141.1468,41.2363],[141.0581,41.1831],[140.9776,41.1965],[140.9463,41.1733],[140.8627,41.1641],[140.8145,41.1285],[140.7658,41.145],[140.7656,41.196],[140.7782,41.2069],[140.8031,41.3295],[140.8152,41.3376],[140.837,41.4182],[140.9011,41.481],[140.9071,41.5385],[140.9136,41.5469],[141.0033,41.4871],[141.1078,41.4639],[141.195,41.3872],[141.2761,41.3532],[141.3822,41.3726],[141.4606,41.4302],[141.4575,41.3775],[141.4238,41.3127],[141.3908,41.161],[141.3983,41.1281],[141.3863,41.0304],[141.4056,40.8168],[141.4374,40.6701],[141.4916,40.5623],[141.5325,40.5314],[141.5755,40.5423],[141.6909,40.4423],[141.7438,40.3839],[141.7785,40.3155],[141.8304,40.2512],[141.842,40.2258],[141.8152,40.2029],[141.8133,40.1836],[141.865,40.1597],[141.8772,40.1393],[141.8474,40.1151],[141.8425,40.0704],[141.9496,39.9966],[141.9614,39.9537],[141.9422,39.9245],[141.9719,39.883],[142.0049,39.7727],[142.0088,39.7528],[141.9912,39.7305],[141.9783,39.6479],[141.9605,39.6116],[141.9663,39.5985],[142.0125,39.6358],[142.0361,39.639],[142.0308,39.5842],[142.0703,39.5502],[142.0151,39.4887],[141.953,39.4608],[141.9709,39.4433],[141.9963,39.4453],[142.0364,39.4838],[142.0584,39.4663],[142.0399,39.4546],[142.0316,39.4173],[141.981,39.4124],[141.9387,39.3851],[141.9641,39.3756],[141.9053,39.3305],[141.9468,39.3304],[141.981,39.351],[141.9837,39.3271],[141.9149,39.2949],[141.9326,39.2752],[141.8991,39.2752],[141.8991,39.2485],[141.947,39.2497],[141.9492,39.228],[141.93,39.2122],[141.8787,39.2076],[141.8937,39.1868],[141.9263,39.1871],[141.9158,39.17],[141.8438,39.1523],[141.9133,39.0977],[141.8905,39.0895],[141.8355,39.1043],[141.8171,39.0909],[141.8718,39.0629],[141.8233,39.0567],[141.8557,39.0261],[141.8474,39.022],[141.7277,39.0363],[141.7482,38.9879],[141.7134,38.9742],[141.7283,38.9699],[141.7302,38.9512],[141.7041,38.9506],[141.68,38.9708],[141.6731,38.981],[141.6936,38.9953],[141.6511,38.9968],[141.6384,38.9854],[141.6453,38.923],[141.6736,38.852],[141.6367,38.8911],[141.5886,38.8822],[141.5871,38.8192],[141.5217,38.7681],[141.5671,38.7288],[141.5664,38.7036],[141.5428,38.7073],[141.4631,38.6614],[141.4739,38.6452],[141.5352,38.632],[141.5114,38.5974],[141.4671,38.5695],[141.5147,38.5348],[141.5291,38.549],[141.5476,38.5186],[141.5428,38.4814],[141.5148,38.508],[141.495,38.4609],[141.508,38.4466],[141.4705,38.4295],[141.4876,38.392],[141.5184,38.4023],[141.5491,38.3852],[141.5204,38.3905],[141.5012,38.3715],[141.5252,38.3599],[141.5428,38.3026],[141.5254,38.2678],[141.4634,38.2992],[141.4671,38.3231],[141.4255,38.3436],[141.4397,38.3715],[141.4281,38.3804],[141.3981,38.3777],[141.3332,38.409],[141.3045,38.4079],[141.2024,38.3858],[141.1809,38.3712],[141.1697,38.3228],[141.1521,38.3231],[141.1318,38.3715],[141.0794,38.3609],[141.0487,38.3095],[141.0791,38.3116],[141.0806,38.2949],[141.0173,38.2449],[140.9668,38.1705],[140.9258,38.0494],[140.9198,37.9652],[140.9334,37.8892],[140.9933,37.7998],[141.0222,37.727],[141.0078,37.6789],[141.0282,37.6481],[141.0418,37.3771],[141.0078,37.2268],[141.0078,37.1339],[140.9603,36.9662],[140.9258,36.9389],[140.8352,36.9084],[140.8044,36.886],[140.7931,36.8376],[140.7419,36.7685],[140.6939,36.618],[140.6235,36.5061],[140.6101,36.4339],[140.6248,36.3636],[140.6169,36.3378],[140.5641,36.2831],[140.5784,36.161],[140.646,36.0133],[140.8416,35.7424],[140.8794,35.7205],[140.8607,35.6878],[140.8283,35.714],[140.7208,35.6825],[140.7163,35.6988],[140.6611,35.6886],[140.4835,35.566],[140.4232,35.4906],[140.3859,35.381],[140.4131,35.3012],[140.3942,35.1966],[140.3776,35.1764],[140.3489,35.1805],[140.3212,35.1304],[140.2944,35.1466],[140.2789,35.132],[140.2533,35.1346],[140.2374,35.1124],[140.1346,35.1226],[140.106,35.0976],[140.1008,35.0758],[139.991,35.0205],[139.9641,34.976],[139.9621,34.9409],[139.9264,34.9074],[139.8431,34.9],[139.822,34.9121],[139.8232,34.9349],[139.8108,34.9435],[139.757,34.9563],[139.7528,34.9758],[139.8085,34.9762],[139.87,34.9993],[139.8677,35.0133],[139.8358,35.0272],[139.8496,35.058],[139.8364,35.1352],[139.819,35.1577],[139.8246,35.1991],[139.8652,35.2241],[139.8663,35.2462],[139.8483,35.2717],[139.8493,35.2936],[139.781,35.3181],[139.8242,35.3284],[139.8448,35.3762],[139.8927,35.3642],[139.9079,35.3787],[139.9001,35.4231],[140.0059,35.4734],[140.0719,35.5429],[140.0902,35.5408],[140.102,35.5671],[140.0861,35.5668],[140.0796,35.6036],[139.9836,35.6686],[139.9205,35.6621],[139.9396,35.6369],[139.8972,35.6144],[139.8503,35.6375],[139.8373,35.6146],[139.8204,35.638],[139.8068,35.6382],[139.7891,35.6032],[139.7653,35.6535],[139.7582,35.6316],[139.7991,35.54],[139.7881,35.5133],[139.7141,35.4647],[139.6669,35.4679],[139.6423,35.4543],[139.6874,35.4322],[139.6869,35.4007],[139.65,35.4106],[139.6358,35.4016],[139.6572,35.377],[139.6484,35.2979],[139.6575,35.2866],[139.6644,35.2988],[139.6769,35.2915],[139.6942,35.2687],[139.7342,35.2652],[139.7455,35.249],[139.7259,35.2333],[139.728,35.2071],[139.6888,35.2091],[139.6665,35.1939],[139.6606,35.1782],[139.6851,35.1404],[139.6163,35.134],[139.6018,35.2018],[139.624,35.2116],[139.5485,35.2879],[139.5442,35.3079],[139.4867,35.3005],[139.4149,35.3188],[139.2334,35.2853],[139.1835,35.2633],[139.146,35.2352],[139.1424,35.184],[139.1581,35.1365],[139.1208,35.1503],[139.0767,35.0751],[139.0759,35.0532],[139.106,35.0494],[139.0865,34.9973],[139.1426,34.9423],[139.1409,34.8706],[139.0991,34.8561],[139.0517,34.7778],[138.9988,34.7333],[138.9856,34.6833],[138.9937,34.6498],[138.9727,34.6458],[138.9408,34.6611],[138.8353,34.5959],[138.7714,34.6473],[138.7739,34.671],[138.7466,34.6915],[138.744,34.7289],[138.7743,34.7513],[138.7481,34.8132],[138.7622,34.8464],[138.7538,34.8795],[138.7898,34.9068],[138.7619,34.9799],[138.7861,35.0264],[138.8938,35.02],[138.9076,35.0307],[138.8033,35.1219],[138.6962,35.139],[138.6373,35.116],[138.5868,35.1144],[138.5541,35.0961],[138.5277,35.0508],[138.4979,35.0326],[138.4949,35.0007],[138.507,34.9911],[138.507,35.0119],[138.5316,35.0169],[138.5143,34.9802],[138.3671,34.9173],[138.3283,34.8553],[138.3408,34.8265],[138.2932,34.7658],[138.216,34.7123],[138.1936,34.6415],[138.2009,34.6216],[138.2403,34.6026],[138.2333,34.5946],[138.0472,34.6546],[137.9676,34.6665],[137.8928,34.6677],[137.7922,34.6394],[137.6835,34.6708],[137.547,34.6773],[137.4276,34.6677],[137.1407,34.5893],[137.0161,34.5788],[137.0728,34.6646],[137.1108,34.6254],[137.2597,34.7041],[137.2823,34.7312],[137.2982,34.7282],[137.3035,34.6894],[137.3093,34.7257],[137.3408,34.7265],[137.3123,34.7367],[137.3215,34.7734],[137.28,34.8081],[137.2228,34.8163],[137.2077,34.8026],[137.1944,34.807],[137.1887,34.7701],[137.1708,34.7639],[137.1715,34.7841],[137.0182,34.7833],[136.9582,34.8324],[136.9826,34.8983],[136.9789,34.9242],[136.931,34.8464],[136.9156,34.776],[136.9373,34.746],[136.9626,34.735],[136.9715,34.6964],[136.856,34.7398],[136.8429,34.7691],[136.8643,34.8365],[136.8434,34.8712],[136.8277,34.8719],[136.8235,34.9549],[136.8799,35.0438],[136.8857,35.0892],[136.8718,35.0934],[136.8489,35.0395],[136.8432,35.075],[136.8301,35.0788],[136.8393,35.0325],[136.813,35.0274],[136.809,35.0488],[136.7995,35.0486],[136.7979,35.0241],[136.7256,35.0272],[136.6592,34.984],[136.6424,34.9481],[136.6617,34.9405],[136.6456,34.9298],[136.6393,34.889],[136.5349,34.7657],[136.5195,34.6809],[136.5464,34.6516],[136.5401,34.6157],[136.551,34.602],[136.633,34.5911],[136.7523,34.5133],[136.8145,34.486],[136.8523,34.4855],[136.8833,34.4376],[136.916,34.434],[136.9258,34.4129],[136.9168,34.3762],[136.8931,34.3824],[136.8753,34.3693],[136.9099,34.355],[136.8833,34.3283],[136.8978,34.301],[136.8957,34.2669],[136.8355,34.2464],[136.7942,34.2531],[136.7734,34.2731],[136.8416,34.2595],[136.8355,34.2805],[136.8485,34.2731],[136.8562,34.2942],[136.8464,34.3076],[136.8075,34.3078],[136.8075,34.2873],[136.7734,34.3078],[136.7566,34.2961],[136.7026,34.2952],[136.7234,34.3313],[136.7068,34.3343],[136.6499,34.3141],[136.6681,34.3096],[136.667,34.2979],[136.6081,34.2646],[136.5925,34.2626],[136.5741,34.2805],[136.5606,34.2595],[136.523,34.2731],[136.5059,34.2464],[136.5148,34.2298],[136.4717,34.239],[136.4165,34.2043],[136.3367,34.184],[136.299,34.1543],[136.297,34.1257],[136.319,34.1088],[136.3084,34.09],[136.2835,34.0813],[136.2527,34.1086],[136.2185,34.0751],[136.2438,34.0642],[136.2798,34.0173],[136.2732,33.9714],[136.2473,33.9715],[136.2322,33.9931],[136.2048,33.9714],[136.2276,33.9617],[136.2285,33.9384],[136.2111,33.9448],[136.1989,33.9209],[136.1648,33.9162],[136.137,33.8906],[136.1047,33.8914],[136.0693,33.847],[135.9807,33.653],[135.9371,33.6175],[135.9387,33.6039],[135.9599,33.5931],[135.8848,33.529],[135.8092,33.505],[135.783,33.4729],[135.7893,33.4411],[135.772,33.4449],[135.76,33.4333],[135.7538,33.4516],[135.7708,33.4682],[135.7656,33.4815],[135.6375,33.4946],[135.4448,33.5508],[135.3873,33.5941],[135.3923,33.6189],[135.375,33.6431],[135.3277,33.6712],[135.3429,33.6939],[135.4024,33.7011],[135.3916,33.7136],[135.3121,33.7655],[135.2326,33.782],[135.2298,33.7986],[135.1965,33.8148],[135.1528,33.8759],[135.1187,33.8929],[135.0589,33.88],[135.0665,33.8964],[135.0574,33.9013],[135.0791,33.906],[135.0696,33.9307],[135.1012,33.9544],[135.0773,33.959],[135.0757,33.9775],[135.1532,34.0098],[135.1616,34.025],[135.1531,34.0486],[135.0945,34.0676],[135.1287,34.1086],[135.1228,34.1371],[135.187,34.1359],[135.19,34.1496],[135.1659,34.1867],[135.1488,34.1856],[135.1196,34.2422],[135.061,34.2673],[135.105,34.3181],[135.209,34.3423],[135.3726,34.4845],[135.3732,34.5189],[135.391,34.5236],[135.4144,34.5581],[135.4036,34.6589],[135.4129,34.6921],[135.3812,34.6813],[135.3413,34.7085],[135.2869,34.7054],[135.2873,34.68],[135.2536,34.677],[135.2549,34.7009],[135.2201,34.6908],[135.2423,34.6508],[135.2109,34.6552],[135.2044,34.6773],[135.186,34.6749],[135.184,34.6512],[135.0458,34.625],[135.0168,34.6422],[134.9603,34.6436],[134.937,34.6674],[134.7444,34.7665],[134.5491,34.7733],[134.5191,34.7597],[134.4959,34.7646],[134.4912,34.7871],[134.4229,34.7256],[134.3684,34.736],[134.354,34.7051],[134.2088,34.728],[134.2168,34.7119],[134.2788,34.6982],[134.2448,34.6915],[134.2202,34.6635],[134.1553,34.6369],[134.1895,34.6369],[134.148,34.597],[134.0837,34.5815],[134.0474,34.6046],[133.9944,34.6087],[133.9367,34.5872],[133.9251,34.5779],[133.9426,34.5551],[134.0007,34.5945],[134.0357,34.5934],[134.0462,34.5815],[134.0457,34.5639],[134.0051,34.5338],[134.012,34.5201],[133.9832,34.5286],[133.9363,34.4512],[133.8218,34.4621],[133.8264,34.4376],[133.7944,34.4429],[133.7689,34.488],[133.7305,34.507],[133.7234,34.5276],[133.4701,34.424],[133.5225,34.4831],[133.5011,34.4922],[133.4303,34.473],[133.4191,34.4679],[133.4222,34.445]]],[[[143.8965,44.1581],[143.9758,44.1483],[143.9404,44.1391],[143.8137,44.1684],[143.8363,44.1759],[143.8965,44.1581]]],[[[145.7674,43.3873],[145.825,43.3736],[145.6841,43.3102],[145.6292,43.3098],[145.5723,43.257],[145.5518,43.2098],[145.5171,43.175],[145.5306,43.1688],[145.4524,43.1839],[145.3025,43.1735],[145.2311,43.1411],[145.1384,43.1282],[145.1193,43.1061],[145.1227,43.0882],[145.1682,43.0794],[145.111,43.0636],[145.0757,43.034],[145.0031,43.0446],[145.0275,43.0093],[145.0143,42.9895],[144.8998,42.9795],[144.8421,43.0071],[144.8402,43.0401],[144.7987,43.0467],[144.7576,43.0188],[144.7356,42.9795],[144.7835,42.9348],[144.742,42.9242],[144.5991,42.9491],[144.4649,42.9371],[144.3906,42.9564],[144.3581,42.9995],[144.323,43.0026],[144.1831,42.9764],[144.042,42.9266],[143.8864,42.8442],[143.7903,42.7573],[143.6388,42.6611],[143.5752,42.6033],[143.349,42.3192],[143.3249,42.2297],[143.3379,42.1502],[143.3311,42.1069],[143.3035,42.0258],[143.2655,41.9867],[143.2415,41.928],[143.1824,41.9616],[143.1152,42.028],[142.9597,42.1054],[142.7577,42.1584],[142.5464,42.2506],[142.46,42.2713],[142.281,42.3665],[142.1678,42.4599],[142.0626,42.4707],[141.981,42.5102],[141.926,42.5586],[141.8171,42.5996],[141.7261,42.6172],[141.6365,42.6158],[141.4277,42.5644],[141.2625,42.4682],[141.0916,42.3918],[141.0168,42.3161],[140.9773,42.2996],[140.9524,42.3048],[140.9317,42.3288],[140.9754,42.3266],[140.9868,42.3398],[140.918,42.3725],[140.9014,42.4208],[140.7337,42.5642],[140.6863,42.5792],[140.5007,42.5792],[140.417,42.5382],[140.3254,42.4328],[140.2886,42.3502],[140.2815,42.3048],[140.2918,42.2596],[140.3216,42.234],[140.4564,42.1731],[140.5488,42.1055],[140.7136,42.1335],[140.7736,42.1022],[140.8371,42.0236],[140.9085,41.9789],[140.9743,41.9138],[141.1069,41.8718],[141.2,41.7995],[141.1216,41.7794],[141.0433,41.7239],[141.0064,41.7121],[140.824,41.7707],[140.7751,41.7704],[140.708,41.7456],[140.6986,41.7598],[140.7334,41.7936],[140.7272,41.8113],[140.709,41.8244],[140.6604,41.8271],[140.6416,41.8151],[140.6043,41.7363],[140.4529,41.6811],[140.4333,41.6447],[140.4432,41.5637],[140.4324,41.5308],[140.2747,41.4824],[140.2412,41.4572],[140.209,41.4011],[140.1375,41.421],[140.1004,41.4135],[140.0383,41.4426],[139.9798,41.5817],[140.0195,41.697],[140.0711,41.7602],[140.083,41.8008],[140.1267,41.814],[140.1239,41.866],[140.145,41.8796],[140.1517,41.9138],[140.1397,41.9487],[140.145,41.9827],[140.0276,42.1055],[139.9275,42.1389],[139.8836,42.195],[139.7983,42.2359],[139.7676,42.311],[139.8368,42.4239],[139.8493,42.5141],[139.8328,42.5888],[139.8434,42.6269],[139.877,42.6634],[139.9172,42.6772],[140.0379,42.686],[140.0955,42.7338],[140.1359,42.7471],[140.1834,42.8102],[140.2004,42.8143],[140.2608,42.761],[140.2815,42.7573],[140.3032,42.7697],[140.3118,42.816],[140.3771,42.8938],[140.5212,42.9963],[140.5271,43.0154],[140.4873,43.0827],[140.3381,43.2105],[140.3294,43.2507],[140.3601,43.3252],[140.4339,43.3284],[140.4529,43.3389],[140.4651,43.3681],[140.4872,43.3724],[140.7962,43.1955],[140.9126,43.2042],[141.0112,43.229],[141.0223,43.2238],[141.0044,43.1931],[141.022,43.175],[141.1691,43.1409],[141.2276,43.1545],[141.304,43.1973],[141.3709,43.2507],[141.4233,43.3179],[141.4401,43.3617],[141.4397,43.4078],[141.3599,43.5236],[141.3914,43.5791],[141.3374,43.7128],[141.385,43.7913],[141.4248,43.8146],[141.5282,43.8412],[141.5847,43.8754],[141.6406,43.9379],[141.6702,44.0666],[141.6554,44.2769],[141.6657,44.3127],[141.7472,44.4242],[141.7961,44.6418],[141.7835,44.7654],[141.7536,44.8854],[141.7219,44.9551],[141.5864,45.1644],[141.5749,45.2069],[141.5838,45.2512],[141.6492,45.341],[141.6371,45.4044],[141.648,45.4372],[141.6657,45.4504],[141.6773,45.4443],[141.6921,45.4023],[141.8233,45.4226],[141.8753,45.4482],[141.8787,45.484],[141.9194,45.5159],[141.9605,45.5102],[142.0567,45.402],[142.2212,45.2996],[142.5393,45.0185],[142.6307,44.8837],[142.6657,44.8666],[142.714,44.8062],[142.9075,44.6474],[142.9398,44.6347],[142.9815,44.5865],[143.2969,44.3947],[143.3514,44.381],[143.3692,44.3463],[143.4053,44.3175],[143.5524,44.2525],[143.7766,44.1893],[143.6804,44.1824],[143.7146,44.1514],[143.7283,44.1135],[143.7424,44.1209],[143.7832,44.1007],[143.9378,44.0964],[143.9992,44.134],[144.1193,44.1291],[144.1717,44.106],[144.1268,44.0801],[144.1055,44.0316],[144.1528,44.0198],[144.1887,44.0503],[144.2151,44.1115],[144.2429,44.1192],[144.2634,44.1078],[144.2559,44.0794],[144.2783,44.0368],[144.3023,44.0241],[144.3278,43.9838],[144.3794,43.9565],[144.5703,43.9248],[144.7405,43.9146],[144.8312,43.9422],[145.0485,44.1221],[145.2017,44.2058],[145.2503,44.2718],[145.3097,44.3164],[145.3228,44.3418],[145.3415,44.3455],[145.3731,44.2922],[145.3718,44.2488],[145.2905,44.1545],[145.2604,44.0694],[145.1443,43.9529],[145.1061,43.8808],[145.116,43.8625],[145.1099,43.8419],[145.0715,43.7746],[145.116,43.6868],[145.2185,43.5897],[145.3117,43.3668],[145.3936,43.3054],[145.3617,43.3015],[145.2992,43.3413],[145.27,43.3464],[145.2583,43.3271],[145.3151,43.3029],[145.3208,43.296],[145.3042,43.2917],[145.3216,43.2763],[145.4684,43.253],[145.5171,43.229],[145.522,43.2412],[145.4966,43.2706],[145.5823,43.3358],[145.6338,43.3532],[145.6616,43.3798],[145.7232,43.3798],[145.7503,43.3941],[145.7674,43.3873]]],[[[130.6746,30.3746],[130.6471,30.2905],[130.6038,30.2525],[130.5773,30.2359],[130.486,30.2258],[130.4377,30.239],[130.3863,30.3396],[130.3762,30.3944],[130.4234,30.399],[130.4671,30.4572],[130.499,30.468],[130.6746,30.3746]]],[[[131.052,30.8402],[131.0615,30.8406],[131.0879,30.7826],[131.0712,30.7693],[131.0789,30.6991],[131.0538,30.6619],[131.0576,30.6113],[131.0378,30.5892],[131.0356,30.5572],[131.0034,30.5512],[130.9826,30.5193],[130.9648,30.4563],[130.978,30.4376],[130.9696,30.4154],[130.9778,30.4003],[130.9622,30.3728],[130.9065,30.366],[130.8858,30.3439],[130.8704,30.3439],[130.8571,30.3662],[130.8655,30.3973],[130.8515,30.4701],[130.87,30.4639],[130.9302,30.5409],[130.9509,30.595],[130.9393,30.6723],[130.9852,30.7414],[130.9997,30.7457],[131.0063,30.7892],[131.052,30.8402]]],[[[130.1531,32.2038],[130.1873,32.1964],[130.1941,32.1764],[130.1673,32.1143],[130.1493,32.1105],[130.1278,32.1323],[130.1333,32.1491],[130.1111,32.1933],[130.1211,32.2126],[130.1531,32.2038]]],[[[130.41,32.5116],[130.457,32.5256],[130.4685,32.5116],[130.4348,32.4927],[130.3928,32.3972],[130.3623,32.375],[130.3539,32.4241],[130.242,32.3955],[130.2131,32.4365],[130.2186,32.456],[130.363,32.5271],[130.3833,32.5094],[130.41,32.5116]]],[[[130.1605,32.5463],[130.1895,32.5218],[130.199,32.4802],[130.2034,32.3389],[130.1577,32.3102],[130.1333,32.2651],[130.075,32.2208],[129.9955,32.1907],[130.0091,32.2521],[129.9583,32.2375],[129.9613,32.2521],[130.0166,32.2931],[130.0643,32.3068],[130.0088,32.3059],[129.9797,32.333],[129.9766,32.3664],[129.9955,32.3887],[129.9944,32.4241],[130.0303,32.4824],[130.0029,32.5334],[130.0432,32.519],[130.1605,32.5463]]],[[[128.8784,32.6739],[128.8993,32.6425],[128.8177,32.6346],[128.8155,32.6468],[128.7796,32.6468],[128.7722,32.6319],[128.795,32.6101],[128.7731,32.5717],[128.736,32.6035],[128.6629,32.6015],[128.6526,32.5911],[128.6004,32.6142],[128.6243,32.6673],[128.6387,32.6352],[128.6527,32.6679],[128.6418,32.7614],[128.6608,32.7828],[128.679,32.7829],[128.6997,32.7438],[128.8085,32.7999],[128.8106,32.7661],[128.8423,32.7595],[128.8498,32.7427],[128.8421,32.7039],[128.8784,32.6739]]],[[[139.791,33.1353],[139.8623,33.107],[139.8775,33.0876],[139.8358,33.0398],[139.7876,33.0584],[139.7398,33.1332],[139.7678,33.1499],[139.791,33.1353]]],[[[129.098,32.9883],[129.1097,32.9829],[129.1696,33.0058],[129.1828,32.9847],[129.176,32.967],[129.1004,32.919],[129.0906,32.8915],[129.0966,32.8569],[129.0679,32.8612],[129.065,32.8178],[129.0457,32.8221],[129.0478,32.91],[129.0331,32.9333],[128.9794,32.9476],[128.9815,32.9604],[129.0204,32.9806],[129.035,32.9674],[129.0545,32.9793],[129.0426,33.0002],[129.0486,33.0396],[129.0652,33.044],[129.0676,33.0191],[129.084,33.0234],[129.0859,33.0762],[129.1066,33.1012],[129.0963,33.1254],[129.1082,33.1667],[129.1177,33.1589],[129.1086,33.1224],[129.1239,33.1092],[129.1027,33.0545],[129.098,32.9883]]],[[[129.5557,33.4108],[129.5622,33.3664],[129.5275,33.3235],[129.5383,33.3156],[129.5011,33.28],[129.4931,33.2452],[129.4126,33.1783],[129.376,33.1697],[129.3425,33.1796],[129.3499,33.2135],[129.3848,33.1835],[129.4065,33.194],[129.3777,33.2146],[129.394,33.2395],[129.4168,33.2369],[129.4064,33.275],[129.4373,33.2967],[129.4427,33.3481],[129.4951,33.3583],[129.5083,33.3821],[129.5229,33.3684],[129.5393,33.3795],[129.5235,33.3906],[129.5253,33.4049],[129.5557,33.4108]]],[[[132.2437,33.7933],[132.273,33.7685],[132.1883,33.7797],[132.2088,33.8001],[132.2437,33.7933]]],[[[129.7764,33.7734],[129.7996,33.7648],[129.7997,33.751],[129.7839,33.7382],[129.7351,33.7367],[129.721,33.6977],[129.6773,33.7291],[129.6812,33.7442],[129.6571,33.7426],[129.6467,33.7728],[129.687,33.7592],[129.6603,33.7836],[129.6569,33.8155],[129.6784,33.8149],[129.6731,33.8322],[129.6886,33.8711],[129.7673,33.8445],[129.7668,33.8021],[129.7969,33.7864],[129.7764,33.7734]]],[[[132.2362,33.869],[132.2163,33.8554],[132.1934,33.8976],[132.1863,33.9212],[132.2019,33.9448],[132.2261,33.9527],[132.2795,33.9412],[132.3262,33.8963],[132.4012,33.9168],[132.4155,33.9379],[132.4695,33.9379],[132.4365,33.9036],[132.3848,33.8942],[132.374,33.8417],[132.3324,33.848],[132.3186,33.8833],[132.2981,33.884],[132.2845,33.8616],[132.2362,33.869]]],[[[139.4871,34.0608],[139.4944,34.0928],[139.5234,34.1124],[139.5563,34.1135],[139.575,34.09],[139.5613,34.0581],[139.5345,34.0375],[139.5061,34.0359],[139.4871,34.0608]]],[[[132.5552,34.0714],[132.4553,34.0881],[132.51,34.1318],[132.4968,34.157],[132.5193,34.1744],[132.5515,34.1706],[132.5379,34.157],[132.5515,34.1086],[132.5776,34.1189],[132.5698,34.0759],[132.5552,34.0714]]],[[[132.9995,34.2084],[132.9639,34.1919],[132.9548,34.1982],[132.9629,34.2185],[132.9909,34.2321],[132.9873,34.2488],[132.9697,34.2526],[133.01,34.2912],[133.03,34.2953],[133.0557,34.2424],[133.0518,34.2223],[133.0348,34.2073],[132.9995,34.2084]]],[[[129.3125,34.2798],[129.3168,34.2945],[129.3471,34.287],[129.3181,34.2584],[129.3248,34.2293],[129.2975,34.2187],[129.2972,34.1705],[129.2766,34.1291],[129.2204,34.0889],[129.1903,34.1148],[129.1716,34.1068],[129.1805,34.2272],[129.2074,34.3293],[129.2285,34.3208],[129.2241,34.2934],[129.2753,34.3076],[129.2689,34.3225],[129.2802,34.3229],[129.3025,34.3078],[129.3125,34.2798]]],[[[139.2704,34.396],[139.301,34.4179],[139.2964,34.3679],[139.2678,34.3227],[139.2537,34.3414],[139.2704,34.396]]],[[[135.0027,34.6084],[135.0301,34.5788],[135.0033,34.5516],[134.9841,34.5058],[134.903,34.419],[134.8958,34.3727],[134.8997,34.349],[134.9583,34.2704],[134.8339,34.2266],[134.8,34.2008],[134.7287,34.1909],[134.7269,34.21],[134.7022,34.2212],[134.7239,34.2526],[134.6881,34.2436],[134.6572,34.2882],[134.6833,34.3282],[134.7208,34.3298],[134.799,34.4468],[134.8504,34.4757],[134.8838,34.5295],[134.9381,34.5509],[134.9813,34.6024],[135.0027,34.6084]]],[[[129.4526,34.6195],[129.4782,34.5971],[129.4642,34.5543],[129.4461,34.5148],[129.3795,34.4526],[129.3843,34.424],[129.3618,34.4055],[129.3595,34.3906],[129.3932,34.4108],[129.3843,34.3834],[129.408,34.3516],[129.4008,34.3379],[129.3438,34.3003],[129.3055,34.3249],[129.3209,34.3338],[129.3451,34.3272],[129.347,34.3559],[129.3346,34.3606],[129.3051,34.3432],[129.3093,34.3844],[129.2874,34.3658],[129.2864,34.344],[129.272,34.3562],[129.2289,34.3556],[129.2354,34.3681],[129.2723,34.3757],[129.2686,34.4331],[129.3109,34.4605],[129.2807,34.4506],[129.276,34.4622],[129.3049,34.5203],[129.3261,34.5354],[129.3085,34.5604],[129.2909,34.5561],[129.2891,34.5699],[129.3233,34.6481],[129.3783,34.6449],[129.4257,34.6778],[129.4233,34.6951],[129.4646,34.7008],[129.4878,34.6764],[129.4691,34.6526],[129.4883,34.6357],[129.4809,34.6199],[129.4526,34.6195]]],[[[139.4182,34.7808],[139.45,34.7568],[139.4538,34.6789],[139.4216,34.6772],[139.3594,34.7023],[139.3512,34.72],[139.3565,34.7972],[139.4182,34.7808]]],[[[133.0125,36.0148],[133.0242,36.0256],[133.0452,36.02],[133.0791,35.9936],[133.0278,35.9936],[133.0125,36.0148]]],[[[133.367,36.2742],[133.3818,36.2577],[133.3792,36.2082],[133.3602,36.1916],[133.3435,36.2043],[133.326,36.1916],[133.3413,36.175],[133.326,36.1581],[133.2564,36.165],[133.1878,36.2161],[133.2095,36.2972],[133.292,36.3425],[133.2928,36.3306],[133.3202,36.3218],[133.367,36.2742]]],[[[138.4592,38.0699],[138.5752,38.0743],[138.5752,38.0351],[138.5132,37.9448],[138.5005,37.9067],[138.3704,37.8288],[138.2651,37.7983],[138.2227,37.8022],[138.2155,37.8303],[138.2832,37.8483],[138.2879,37.906],[138.3425,37.9669],[138.3148,37.9975],[138.2479,37.9785],[138.2327,38.0078],[138.2422,38.0715],[138.3101,38.1681],[138.4286,38.2563],[138.4694,38.3132],[138.5142,38.3231],[138.5071,38.2414],[138.4439,38.1022],[138.4432,38.0519],[138.4592,38.0699]]],[[[139.5485,42.2434],[139.5642,42.2318],[139.5207,42.1745],[139.509,42.1008],[139.4939,42.0788],[139.4456,42.0548],[139.4295,42.0738],[139.4108,42.154],[139.4238,42.1916],[139.4522,42.2153],[139.5485,42.2434]]],[[[145.3115,43.5933],[145.3628,43.5549],[145.312,43.5422],[145.2835,43.5179],[145.2732,43.5224],[145.2769,43.5382],[145.332,43.5654],[145.2024,43.6138],[145.3115,43.5933]]],[[[141.3272,45.1723],[141.3356,45.1578],[141.3101,45.1246],[141.2512,45.0992],[141.1501,45.1471],[141.1311,45.1702],[141.1455,45.1898],[141.1318,45.2103],[141.1672,45.24],[141.2026,45.2491],[141.2683,45.2255],[141.3272,45.1723]]],[[[141.0527,45.4504],[141.0736,45.4247],[141.0591,45.322],[141.0357,45.2649],[141.0357,45.2922],[140.9989,45.35],[141.001,45.4191],[140.9668,45.4634],[140.9861,45.4674],[141.0066,45.4404],[141.0527,45.4504]]],[[[130.2201,30.4716],[130.2621,30.447],[130.2622,30.435],[130.2125,30.4207],[130.1931,30.4396],[130.1904,30.4613],[130.1731,30.4544],[130.1418,30.4893],[130.2201,30.4716]]],[[[134.3674,34.5543],[134.3743,34.5133],[134.3469,34.4308],[134.3328,34.4448],[134.3059,34.445],[134.325,34.4537],[134.3206,34.4689],[134.2991,34.4649],[134.2624,34.4209],[134.2444,34.4177],[134.2432,34.4639],[134.2234,34.4724],[134.1702,34.4655],[134.1614,34.4792],[134.1751,34.5201],[134.2038,34.5124],[134.2713,34.5407],[134.3674,34.5543]]],[[[129.9437,29.9653],[129.9409,29.9532],[129.9006,29.9726],[129.909,29.9993],[129.922,30.0047],[129.9437,29.9653]]],[[[129.9463,30.8447],[129.9598,30.8287],[129.9395,30.8134],[129.912,30.8198],[129.904,30.8344],[129.9321,30.8518],[129.9463,30.8447]]],[[[139.6228,33.8856],[139.6229,33.8568],[139.5813,33.8625],[139.5925,33.8958],[139.6228,33.8856]]],[[[139.3729,41.5222],[139.3818,41.5136],[139.3743,41.5043],[139.3408,41.4975],[139.3403,41.5238],[139.3729,41.5222]]],[[[129.9334,31.8678],[129.9292,31.8267],[129.8899,31.8107],[129.8591,31.8237],[129.8504,31.8574],[129.8206,31.8455],[129.845,31.8806],[129.9099,31.8457],[129.9134,31.8677],[129.9334,31.8678]]],[[[130.2439,32.3018],[130.263,32.2813],[130.2107,32.2554],[130.2171,32.2869],[130.2439,32.3018]]],[[[130.4468,32.5968],[130.4509,32.5634],[130.4246,32.5468],[130.4276,32.5373],[130.4092,32.5493],[130.3988,32.5932],[130.4365,32.6207],[130.4529,32.611],[130.4468,32.5968]]],[[[132.562,32.7421],[132.5708,32.7173],[132.5497,32.7043],[132.5399,32.7338],[132.5486,32.7508],[132.562,32.7421]]],[[[128.8998,32.8183],[128.9072,32.794],[128.8823,32.7653],[128.8401,32.7776],[128.8373,32.8338],[128.8569,32.83],[128.8739,32.7987],[128.863,32.8353],[128.8998,32.8183]]],[[[128.9531,32.8742],[128.958,32.8415],[128.9451,32.8043],[128.8807,32.8626],[128.9089,32.8664],[128.9295,32.8498],[128.929,32.8647],[128.9531,32.8742]]],[[[129.0278,32.8998],[129.0241,32.848],[128.968,32.8737],[128.9646,32.8983],[128.9956,32.8905],[128.9797,32.9165],[128.9846,32.9292],[129.0096,32.9245],[129.0278,32.8998]]],[[[129.1355,33.2999],[129.1496,33.269],[129.1273,33.2475],[129.075,33.2599],[129.0891,33.2833],[129.1355,33.2999]]],[[[129.5559,33.494],[129.5764,33.4883],[129.5545,33.4735],[129.5032,33.4737],[129.5418,33.5073],[129.5559,33.494]]],[[[132.6414,34.0141],[132.6345,33.9648],[132.6004,33.9499],[132.5891,33.9564],[132.5964,33.9809],[132.6414,34.0141]]],[[[133.0935,34.1743],[133.0944,34.1604],[133.0452,34.1184],[133.0171,34.1188],[133.02,34.1496],[133.0368,34.1533],[133.0262,34.1762],[133.0331,34.1894],[133.0554,34.1935],[133.0935,34.1743]]],[[[132.7385,34.197],[132.7614,34.1772],[132.74,34.1599],[132.689,34.1899],[132.709,34.2033],[132.7385,34.197]]],[[[132.9212,34.2773],[132.9285,34.284],[132.9323,34.2748],[132.9168,34.2219],[132.8831,34.2086],[132.8499,34.2152],[132.8464,34.2402],[132.9212,34.2773]]],[[[132.3384,34.3044],[132.345,34.282],[132.3255,34.2647],[132.2959,34.2432],[132.2679,34.2445],[132.2988,34.2922],[132.3384,34.3044]]],[[[133.7157,34.3961],[133.7258,34.3714],[133.7031,34.3518],[133.6919,34.3784],[133.7157,34.3961]]],[[[135.2052,34.4305],[135.241,34.4546],[135.2571,34.4358],[135.2244,34.4163],[135.2052,34.4305]]],[[[134.049,34.4744],[134.0366,34.4808],[134.072,34.4985],[134.1045,34.4903],[134.084,34.4598],[134.049,34.4744]]],[[[137.0481,37.1523],[137.0387,37.1201],[136.9473,37.097],[136.9053,37.1436],[136.9115,37.1509],[136.9284,37.1378],[136.9736,37.1533],[136.999,37.1395],[137.0418,37.1597],[137.0481,37.1523]]]]}}]}