{"type":"FeatureCollection","features":[{"type":"Feature","properties":{"name":"Japan prefecture borders","source":"Natural Earth (public domain)"},"geometry":{"type":"MultiLineString","coordinates":[[[130.345,32.161],[130.345,32.162]],[[130.345,32.161],[130.356,32.153]],[[130.356,32.153],[130.383,32.126]],[[130.383,32.126],[130.393,32.118]],[[130.393,32.118],[130.408,32.114]],[[130.408,32.114],[130.424,32.113]],[[130.424,32.113],[130.45,32.119]],[[130.45,32.119],[130.472,32.127]],[[130.472,32.127],[130.526,32.14]],[[130.526,32.14],[130.539,32.146]],[[130.539,32.146],[130.553,32.15]],[[130.553,32.15],[130.564,32.154]],[[130.564,32.154],[130.574,32.161]],[[130.574,32.161],[130.59,32.163]],[[130.59,32.163],[130.611,32.157]],[[130.611,32.157],[130.674,32.112]],[[130.674,32.112],[130.712,32.091]],[[130.7,32.067],[130.712,32.091]],[[130.7,32.067],[130.711,32.05]],[[130.711,32.05],[130.721,32.041]],[[130.721,32.041],[130.784,31.955]],[[130.784,31.955],[130.803,31.935]],[[130.803,31.935],[130.824,31.92]],[[130.824,31.92],[130.847,31.91]],[[130.847,31.91],[130.873,31.888]],[[130.873,31.888],[130.881,31.87]],[[130.876,31.824],[130.881,31.87]],[[130.876,31.824],[130.881,31.801]],[[130.881,31.801],[130.889,31.79]],[[130.889,31.79],[130.897,31.784]],[[130.897,31.784],[130.965,31.761]],[[130.965,31.761],[130.976,31.747]],[[130.976,31.747],[131.002,31.724]],[[131.002,31.724],[131.008,31.714]],[[131.008,31.714],[131.01,31.706]],[[131.01,31.706],[131.011,31.696]],[[131.011,31.696],[131.013,31.686]],[[131.013,31.686],[131.017,31.676]],[[131.017,31.676],[131.036,31.645]],[[131.036,31.645],[131.047,31.637]],[[131.047,31.637],[131.071,31.634]],[[131.071,31.634],[131.101,31.619]],[[131.101,31.619],[131.107,31.618]],[[131.107,31.618],[131.116,31.617]],[[131.116,31.617],[131.126,31.617]],[[131.126,31.617],[131.156,31.613]],[[131.156,31.613],[131.175,31.6]],[[131.175,31.6],[131.186,31.587]],[[131.186,31.587],[131.192,31.575]],[[131.192,31.564],[131.192,31.575]],[[131.187,31.541],[131.192,31.564]],[[131.187,31.525],[131.187,31.541]],[[131.181,31.512],[131.187,31.525]],[[131.155,31.478],[131.181,31.512]],[[131.153,31.474],[131.155,31.478]],[[131.151,31.471],[131.153,31.474]],[[131.839,32.734],[131.872,32.732]],[[131.835,32.74],[131.839,32.734]],[[131.83,32.752],[131.835,32.74]],[[131.828,32.768],[131.83,32.752]],[[131.819,32.798],[131.828,32.768]],[[131.809,32.809],[131.819,32.798]],[[131.795,32.814],[131.809,32.809]],[[131.78,32.816],[131.795,32.814]],[[131.761,32.822],[131.78,32.816]],[[131.747,32.823],[131.761,32.822]],[[131.735,32.82],[131.747,32.823]],[[131.727,32.814],[131.735,32.82]],[[131.721,32.806],[131.727,32.814]],[[131.707,32.78],[131.721,32.806]],[[131.7,32.771],[131.707,32.78]],[[131.696,32.766],[131.7,32.771]],[[131.683,32.763],[131.696,32.766]],[[131.59,32.76],[131.683,32.763]],[[131.571,32.754],[131.59,32.76]],[[131.559,32.748],[131.571,32.754]],[[131.54,32.743],[131.559,32.748]],[[131.527,32.743],[131.54,32.743]],[[131.516,32.746],[131.527,32.743]],[[131.508,32.752],[131.516,32.746]],[[131.502,32.759],[131.508,32.752]],[[131.5,32.767],[131.502,32.759]],[[131.5,32.767],[131.501,32.775]],[[131.501,32.775],[131.503,32.783]],[[131.503,32.783],[131.503,32.793]],[[131.498,32.8],[131.503,32.793]],[[131.49,32.808],[131.498,32.8]],[[131.478,32.815],[131.49,32.808]],[[131.464,32.818],[131.478,32.815]],[[131.45,32.816],[131.464,32.818]],[[131.421,32.805],[131.45,32.816]],[[131.402,32.802],[131.421,32.805]],[[131.382,32.802],[131.402,32.802]],[[131.357,32.805],[131.382,32.802]],[[131.343,32.811],[131.357,32.805]],[[131.324,32.822],[131.343,32.811]],[[131.262,32.866],[131.324,32.822]],[[131.246,32.894],[131.262,32.866]],[[131.244,32.907],[131.246,32.894]],[[131.24,32.955],[131.244,32.907]],[[131.238,32.964],[131.24,32.955]],[[131.235,32.975],[131.238,32.964]],[[131.22,33.0],[131.235,32.975]],[[131.209,33.03],[131.22,33.0]],[[131.201,33.042],[131.209,33.03]],[[131.181,33.063],[131.201,33.042]],[[131.172,33.074],[131.181,33.063]],[[131.141,33.126],[131.172,33.074]],[[131.125,33.142],[131.141,33.126]],[[131.091,33.165],[131.125,33.142]],[[131.059,33.181],[131.091,33.165]],[[131.045,33.181],[131.059,33.181]],[[131.029,33.177],[131.045,33.181]],[[131.008,33.167],[131.029,33.177]],[[130.978,33.161],[131.008,33.167]],[[130.973,33.154],[130.978,33.161]],[[130.973,33.145],[130.973,33.154]],[[130.973,33.145],[130.98,33.12]],[[130.98,33.12],[130.986,33.11]],[[130.986,33.11],[131.004,33.089]],[[131.004,33.089],[131.01,33.08]],[[131.009,33.071],[131.01,33.08]],[[130.995,33.045],[131.009,33.071]],[[130.991,33.033],[130.995,33.045]],[[130.977,33.029],[130.991,33.033]],[[130.951,33.032],[130.977,33.029]],[[130.871,33.071],[130.951,33.032]],[[130.835,33.081],[130.871,33.071]],[[130.835,33.081],[130.856,33.143]],[[130.852,33.16],[130.856,33.143]],[[130.831,33.215],[130.852,33.16]],[[130.826,33.233],[130.831,33.215]],[[130.826,33.233],[130.841,33.277]],[[130.841,33.277],[130.843,33.294]],[[130.837,33.323],[130.843,33.294]],[[130.836,33.331],[130.837,33.323]],[[130.836,33.331],[130.837,33.34]],[[130.837,33.34],[130.839,33.346]],[[130.839,33.346],[130.841,33.352]],[[130.841,33.352],[130.865,33.385]],[[130.865,33.385],[130.875,33.408]],[[130.875,33.408],[130.886,33.425]],[[130.886,33.425],[130.911,33.449]],[[130.911,33.449],[130.926,33.466]],[[130.926,33.466],[130.938,33.477]],[[130.938,33.477],[130.951,33.485]],[[130.951,33.485],[130.981,33.496]],[[130.981,33.496],[130.995,33.499]],[[130.995,33.499],[131.004,33.5]],[[131.004,33.5],[131.064,33.498]],[[131.064,33.498],[131.124,33.49]],[[131.124,33.49],[131.14,33.492]],[[131.14,33.492],[131.149,33.496]],[[131.149,33.496],[131.157,33.504]],[[131.157,33.504],[131.163,33.513]],[[131.163,33.513],[131.175,33.525]],[[131.175,33.525],[131.181,33.536]],[[131.181,33.536],[131.183,33.545]],[[131.175,33.568],[131.183,33.545]],[[131.175,33.568],[131.175,33.583]],[[131.175,33.583],[131.18,33.593]],[[131.18,33.593],[131.182,33.597]],[[131.182,33.597],[131.195,33.607]],[[131.195,33.607],[131.201,33.613]],[[130.787,33.101],[130.835,33.081]],[[130.729,33.134],[130.787,33.101]],[[130.716,33.139],[130.729,33.134]],[[130.701,33.141],[130.716,33.139]],[[130.685,33.14],[130.701,33.141]],[[130.673,33.135],[130.685,33.14]],[[130.65,33.113],[130.673,33.135]],[[130.636,33.104],[130.65,33.113]],[[130.618,33.101],[130.636,33.104]],[[130.58,33.098],[130.618,33.101]],[[130.564,33.092],[130.58,33.098]],[[130.546,33.077],[130.564,33.092]],[[130.522,33.062],[130.546,33.077]],[[130.508,33.049],[130.522,33.062]],[[130.499,33.034],[130.508,33.049]],[[130.499,33.034],[130.5,33.016]],[[130.5,33.016],[130.502,33.01]],[[130.499,33.002],[130.502,33.01]],[[130.498,33.0],[130.499,33.002]],[[130.484,32.995],[130.498,33.0]],[[130.445,32.99],[130.484,32.995]],[[130.429,32.981],[130.445,32.99]],[[130.346,33.157],[130.349,33.142]],[[130.345,33.167],[130.346,33.157]],[[130.345,33.167],[130.347,33.18]],[[130.347,33.18],[130.354,33.189]],[[130.354,33.189],[130.362,33.195]],[[130.362,33.195],[130.367,33.2]],[[130.367,33.2],[130.37,33.207]],[[130.37,33.207],[130.375,33.227]],[[130.375,33.227],[130.381,33.236]],[[130.381,33.236],[130.391,33.243]],[[130.391,33.243],[130.404,33.248]],[[130.404,33.248],[130.414,33.254]],[[130.414,33.254],[130.424,33.259]],[[130.424,33.259],[130.444,33.26]],[[130.444,33.26],[130.453,33.265]],[[130.453,33.265],[130.465,33.281]],[[130.465,33.281],[130.471,33.287]],[[130.471,33.287],[130.478,33.304]],[[130.478,33.304],[130.484,33.315]],[[130.484,33.315],[130.496,33.322]],[[130.496,33.322],[130.508,33.327]],[[130.508,33.327],[130.517,33.328]],[[130.517,33.328],[130.526,33.331]],[[130.526,33.331],[130.532,33.338]],[[130.532,33.338],[130.537,33.37]],[[130.536,33.377],[130.537,33.37]],[[130.529,33.409],[130.536,33.377]],[[130.527,33.414],[130.529,33.409]],[[130.519,33.421],[130.527,33.414]],[[130.507,33.424],[130.519,33.421]],[[130.487,33.42],[130.507,33.424]],[[130.459,33.409],[130.487,33.42]],[[130.447,33.402],[130.459,33.409]],[[130.426,33.387],[130.447,33.402]],[[130.414,33.387],[130.426,33.387]],[[130.401,33.394],[130.414,33.387]],[[130.38,33.413],[130.401,33.394]],[[130.366,33.421],[130.38,33.413]],[[130.351,33.427],[130.366,33.421]],[[130.29,33.459],[130.351,33.427]],[[130.275,33.464],[130.29,33.459]],[[130.259,33.468],[130.275,33.464]],[[130.231,33.469],[130.259,33.468]],[[130.212,33.469],[130.231,33.469]],[[130.164,33.462],[130.212,33.469]],[[130.121,33.462],[130.164,33.462]],[[130.091,33.459],[130.121,33.462]],[[130.036,33.458],[130.091,33.459]],[[130.103,32.96],[130.204,32.944]],[[130.06,32.973],[130.103,32.96]],[[130.032,32.988],[130.06,32.973]],[[130.016,33.0],[130.032,32.988]],[[129.997,33.017],[130.016,33.0]],[[129.925,33.069],[129.997,33.017]],[[129.917,33.078],[129.925,33.069]],[[129.915,33.087],[129.917,33.078]],[[129.915,33.087],[129.931,33.099]],[[129.931,33.099],[129.935,33.107]],[[129.935,33.107],[129.936,33.118]],[[129.93,33.132],[129.936,33.118]],[[129.919,33.144],[129.93,33.132]],[[129.905,33.15],[129.919,33.144]],[[129.862,33.16],[129.905,33.15]],[[129.829,33.175],[129.862,33.16]],[[129.815,33.186],[129.829,33.175]],[[129.806,33.197],[129.815,33.186]],[[129.803,33.206],[129.806,33.197]],[[129.798,33.216],[129.803,33.206]],[[129.767,33.256],[129.798,33.216]],[[129.759,33.268],[129.767,33.256]],[[129.758,33.279],[129.759,33.268]],[[129.758,33.279],[129.764,33.288]],[[129.764,33.288],[129.795,33.317]],[[129.795,33.317],[129.81,33.325]],[[129.81,33.325],[129.815,33.331]],[[131.271,32.811],[131.324,32.822]],[[131.258,32.804],[131.271,32.811]],[[131.242,32.793],[131.258,32.804]],[[131.236,32.784],[131.242,32.793]],[[131.225,32.757],[131.236,32.784]],[[131.21,32.735],[131.225,32.757]],[[131.181,32.709],[131.21,32.735]],[[131.175,32.701],[131.181,32.709]],[[131.16,32.676],[131.175,32.701]],[[131.147,32.663],[131.16,32.676]],[[131.125,32.646],[131.147,32.663]],[[131.113,32.631],[131.125,32.646]],[[131.105,32.614],[131.113,32.631]],[[131.1,32.586],[131.105,32.614]],[[131.095,32.576],[131.1,32.586]],[[131.086,32.571],[131.095,32.576]],[[131.073,32.569],[131.086,32.571]],[[131.059,32.569],[131.073,32.569]],[[131.047,32.564],[131.059,32.569]],[[131.035,32.553],[131.047,32.564]],[[131.023,32.534],[131.035,32.553]],[[131.004,32.487],[131.023,32.534]],[[131.0,32.471],[131.004,32.487]],[[131.0,32.46],[131.0,32.471]],[[131.0,32.46],[131.002,32.451]],[[131.002,32.451],[131.006,32.439]],[[131.006,32.439],[131.013,32.422]],[[131.013,32.422],[131.022,32.411]],[[131.022,32.411],[131.044,32.392]],[[131.044,32.392],[131.054,32.381]],[[131.054,32.381],[131.063,32.364]],[[131.063,32.364],[131.069,32.348]],[[131.069,32.348],[131.084,32.325]],[[131.084,32.325],[131.088,32.314]],[[131.087,32.3],[131.088,32.314]],[[131.081,32.287],[131.087,32.3]],[[131.062,32.264],[131.081,32.287]],[[131.05,32.246],[131.062,32.264]],[[131.05,32.234],[131.05,32.246]],[[131.05,32.234],[131.055,32.223]],[[131.055,32.223],[131.072,32.198]],[[131.072,32.198],[131.078,32.184]],[[131.078,32.184],[131.082,32.164]],[[131.076,32.156],[131.082,32.164]],[[131.065,32.152],[131.076,32.156]],[[131.053,32.153],[131.065,32.152]],[[131.006,32.166],[131.053,32.153]],[[130.997,32.163],[131.006,32.166]],[[130.986,32.154],[130.997,32.163]],[[130.967,32.132],[130.986,32.154]],[[130.952,32.12],[130.967,32.132]],[[130.937,32.115],[130.952,32.12]],[[130.909,32.122],[130.937,32.115]],[[130.897,32.122],[130.909,32.122]],[[130.884,32.119],[130.897,32.122]],[[130.852,32.102],[130.884,32.119]],[[130.837,32.096],[130.852,32.102]],[[130.823,32.092],[130.837,32.096]],[[130.811,32.091],[130.823,32.092]],[[130.742,32.094],[130.811,32.091]],[[130.712,32.091],[130.742,32.094]],[[134.249,33.544],[134.296,33.53]],[[134.235,33.54],[134.249,33.544]],[[134.217,33.543],[134.235,33.54]],[[134.19,33.552],[134.217,33.543]],[[134.18,33.564],[134.19,33.552]],[[134.155,33.609],[134.18,33.564]],[[134.155,33.609],[134.161,33.625]],[[134.161,33.625],[134.163,33.634]],[[134.162,33.645],[134.163,33.634]],[[134.159,33.656],[134.162,33.645]],[[134.149,33.665],[134.159,33.656]],[[134.132,33.672],[134.149,33.665]],[[134.101,33.676],[134.132,33.672]],[[134.067,33.675],[134.101,33.676]],[[134.06,33.679],[134.067,33.675]],[[134.052,33.748],[134.06,33.679]],[[134.048,33.76],[134.052,33.748]],[[134.043,33.771],[134.048,33.76]],[[134.037,33.782],[134.043,33.771]],[[134.028,33.803],[134.037,33.782]],[[134.018,33.811],[134.028,33.803]],[[133.973,33.816],[134.018,33.811]],[[133.955,33.812],[133.973,33.816]],[[133.943,33.805],[133.955,33.812]],[[133.934,33.795],[133.943,33.805]],[[133.922,33.786],[133.934,33.795]],[[133.906,33.785],[133.922,33.786]],[[133.885,33.79],[133.906,33.785]],[[133.832,33.817],[133.885,33.79]],[[133.813,33.823],[133.832,33.817]],[[133.795,33.824],[133.813,33.823]],[[133.784,33.823],[133.795,33.824]],[[133.743,33.827],[133.784,33.823]],[[133.648,33.856],[133.743,33.827]],[[133.648,33.856],[133.657,33.873]],[[133.657,33.873],[133.667,33.901]],[[133.667,33.901],[133.669,33.928]],[[133.661,33.998],[133.669,33.928]],[[133.661,33.998],[133.704,34.021]],[[133.704,34.021],[133.716,34.032]],[[133.716,34.032],[133.735,34.044]],[[133.735,34.044],[133.745,34.052]],[[133.745,34.052],[133.757,34.059]],[[133.757,34.059],[133.791,34.065]],[[133.791,34.065],[133.804,34.072]],[[133.804,34.072],[133.818,34.087]],[[133.818,34.087],[133.828,34.093]],[[133.828,34.093],[133.9,34.101]],[[133.9,34.101],[133.918,34.095]],[[133.918,34.095],[133.93,34.088]],[[133.93,34.088],[133.941,34.078]],[[133.941,34.078],[133.952,34.074]],[[133.952,34.074],[133.965,34.072]],[[133.965,34.072],[133.984,34.074]],[[133.984,34.074],[134.0,34.079]],[[134.0,34.079],[134.034,34.096]],[[134.034,34.096],[134.048,34.099]],[[134.048,34.099],[134.091,34.106]],[[134.091,34.106],[134.108,34.112]],[[134.108,34.112],[134.123,34.123]],[[134.123,34.123],[134.137,34.144]],[[134.137,34.144],[134.149,34.152]],[[134.149,34.152],[134.172,34.158]],[[134.172,34.158],[134.22,34.163]],[[134.22,34.163],[134.36,34.164]],[[134.36,34.164],[134.396,34.154]],[[134.396,34.154],[134.408,34.157]],[[134.408,34.157],[134.42,34.161]],[[134.42,34.161],[134.442,34.205]],[[134.442,34.205],[134.442,34.208]],[[133.647,34.012],[133.661,33.998]],[[133.625,34.018],[133.647,34.012]],[[133.592,34.024],[133.625,34.018]],[[133.56,33.853],[133.648,33.856]],[[133.515,33.837],[133.56,33.853]],[[133.494,33.825],[133.515,33.837]],[[133.469,33.819],[133.494,33.825]],[[133.427,33.818],[133.469,33.819]],[[133.384,33.813],[133.427,33.818]],[[133.335,33.813],[133.384,33.813]],[[133.302,33.805],[133.335,33.813]],[[133.286,33.806],[133.302,33.805]],[[133.268,33.805],[133.286,33.806]],[[133.257,33.798],[133.268,33.805]],[[133.236,33.779],[133.257,33.798]],[[133.223,33.774],[133.236,33.779]],[[133.209,33.773],[133.223,33.774]],[[133.19,33.776],[133.209,33.773]],[[133.179,33.772],[133.19,33.776]],[[133.171,33.763],[133.179,33.772]],[[133.165,33.753],[133.171,33.763]],[[133.148,33.73],[133.165,33.753]],[[133.117,33.672],[133.148,33.73]],[[133.108,33.659],[133.117,33.672]],[[133.097,33.647],[133.108,33.659]],[[133.075,33.631],[133.097,33.647]],[[133.066,33.618],[133.075,33.631]],[[133.06,33.602],[133.066,33.618]],[[133.056,33.589],[133.06,33.602]],[[133.045,33.565],[133.056,33.589]],[[133.044,33.554],[133.045,33.565]],[[133.044,33.554],[133.045,33.535]],[[133.043,33.525],[133.045,33.535]],[[133.035,33.512],[133.043,33.525]],[[133.003,33.475],[133.035,33.512]],[[132.986,33.461],[133.003,33.475]],[[132.97,33.454],[132.986,33.461]],[[132.95,33.45],[132.97,33.454]],[[132.82,33.45],[132.95,33.45]],[[132.809,33.444],[132.82,33.45]],[[132.804,33.435],[132.809,33.444]],[[132.804,33.435],[132.81,33.413]],[[132.81,33.413],[132.812,33.4]],[[132.812,33.4],[132.816,33.389]],[[132.816,33.389],[132.824,33.379]],[[132.824,33.379],[132.834,33.371]],[[132.834,33.371],[132.841,33.363]],[[132.841,33.363],[132.848,33.353]],[[132.848,33.353],[132.857,33.344]],[[132.857,33.344],[132.869,33.335]],[[132.869,33.335],[132.878,33.326]],[[132.878,33.326],[132.882,33.316]],[[132.877,33.303],[132.882,33.316]],[[132.86,33.29],[132.877,33.303]],[[132.802,33.261],[132.86,33.29]],[[132.784,33.25],[132.802,33.261]],[[132.774,33.239],[132.784,33.25]],[[132.768,33.228],[132.774,33.239]],[[132.765,33.215],[132.768,33.228]],[[132.763,33.204],[132.765,33.215]],[[132.761,33.195],[132.763,33.204]],[[132.759,33.188],[132.761,33.195]],[[132.75,33.182],[132.759,33.188]],[[132.724,33.168],[132.75,33.182]],[[132.713,33.157],[132.724,33.168]],[[132.696,33.131],[132.713,33.157]],[[132.686,33.124],[132.696,33.131]],[[132.673,33.123],[132.686,33.124]],[[132.661,33.129],[132.673,33.123]],[[132.633,33.152],[132.661,33.129]],[[132.619,33.153],[132.633,33.152]],[[132.614,33.145],[132.619,33.153]],[[132.614,33.136],[132.614,33.145]],[[132.614,33.136],[132.618,33.125]],[[132.618,33.125],[132.636,33.091]],[[132.636,33.091],[132.643,33.08]],[[132.643,33.08],[132.648,33.069]],[[132.647,33.057],[132.648,33.069]],[[132.647,33.057],[132.648,33.046]],[[132.648,33.046],[132.653,33.034]],[[132.653,33.034],[132.672,33.001]],[[132.672,32.981],[132.672,33.001]],[[132.672,32.981],[132.675,32.963]],[[132.673,32.952],[132.675,32.963]],[[132.669,32.942],[132.673,32.952]],[[132.643,32.909],[132.669,32.942]],[[132.64,32.909],[132.643,32.909]],[[133.254,35.537],[133.257,35.536]],[[133.21,35.524],[133.254,35.537]],[[133.205,35.521],[133.21,35.524]],[[133.201,35.516],[133.205,35.521]],[[133.201,35.516],[133.204,35.512]],[[133.204,35.512],[133.208,35.509]],[[133.208,35.509],[133.219,35.502]],[[133.219,35.502],[133.223,35.498]],[[133.223,35.498],[133.226,35.494]],[[133.226,35.494],[133.229,35.49]],[[133.229,35.49],[133.231,35.481]],[[133.231,35.481],[133.233,35.477]],[[133.233,35.477],[133.242,35.464]],[[133.242,35.464],[133.25,35.456]],[[133.25,35.456],[133.275,35.439]],[[133.275,35.439],[133.287,35.433]],[[133.287,35.433],[133.317,35.424]],[[133.317,35.424],[133.32,35.422]],[[133.32,35.422],[133.323,35.42]],[[133.323,35.42],[133.325,35.416]],[[133.325,35.416],[133.326,35.411]],[[133.323,35.406],[133.326,35.411]],[[133.316,35.401],[133.323,35.406]],[[133.311,35.399],[133.316,35.401]],[[133.306,35.396],[133.311,35.399]],[[133.304,35.389],[133.306,35.396]],[[133.297,35.334],[133.304,35.389]],[[133.297,35.334],[133.3,35.301]],[[133.3,35.282],[133.3,35.301]],[[133.293,35.269],[133.3,35.282]],[[133.272,35.256],[133.293,35.269]],[[133.188,35.222],[133.272,35.256]],[[133.175,35.214],[133.188,35.222]],[[133.164,35.206],[133.175,35.214]],[[133.164,35.206],[133.166,35.195]],[[133.166,35.195],[133.172,35.186]],[[133.172,35.186],[133.175,35.174]],[[133.172,35.158],[133.175,35.174]],[[133.148,35.122],[133.172,35.158]],[[133.128,35.067],[133.148,35.122]],[[133.097,35.071],[133.128,35.067]],[[133.054,35.063],[133.097,35.071]],[[133.038,35.063],[133.054,35.063]],[[133.023,35.067],[133.038,35.063]],[[132.994,35.081],[133.023,35.067]],[[132.981,35.08],[132.994,35.081]],[[132.954,35.069],[132.981,35.08]],[[132.939,35.069],[132.954,35.069]],[[132.876,35.078],[132.939,35.069]],[[132.854,35.073],[132.876,35.078]],[[132.839,35.066],[132.854,35.073]],[[132.829,35.055],[132.839,35.066]],[[132.808,35.028],[132.829,35.055]],[[132.747,34.962],[132.808,35.028]],[[132.729,34.95],[132.747,34.962]],[[132.714,34.944],[132.729,34.95]],[[132.694,34.938],[132.714,34.944]],[[132.681,34.93],[132.694,34.938]],[[132.669,34.922],[132.681,34.93]],[[132.65,34.903],[132.669,34.922]],[[132.643,34.895],[132.65,34.903]],[[132.64,34.889],[132.643,34.895]],[[132.64,34.889],[132.641,34.884]],[[132.641,34.884],[132.648,34.879]],[[132.648,34.879],[132.661,34.874]],[[132.661,34.874],[132.673,34.866]],[[132.673,34.866],[132.68,34.856]],[[132.678,34.844],[132.68,34.856]],[[132.668,34.838],[132.678,34.844]],[[132.587,34.818],[132.668,34.838]],[[132.546,34.799],[132.587,34.818]],[[132.522,34.792],[132.546,34.799]],[[132.509,34.79],[132.522,34.792]],[[132.469,34.792],[132.509,34.79]],[[132.454,34.795],[132.469,34.792]],[[132.44,34.8],[132.454,34.795]],[[132.424,34.8],[132.44,34.8]],[[132.415,34.794],[132.424,34.8]],[[132.402,34.783],[132.415,34.794]],[[132.39,34.779],[132.402,34.783]],[[132.379,34.78],[132.39,34.779]],[[132.368,34.784],[132.379,34.78]],[[132.352,34.787],[132.368,34.784]],[[132.308,34.776],[132.352,34.787]],[[132.289,34.768],[132.308,34.776]],[[132.277,34.768],[132.289,34.768]],[[132.267,34.774],[132.277,34.768]],[[132.26,34.781],[132.267,34.774]],[[132.248,34.783],[132.26,34.781]],[[132.241,34.775],[132.248,34.783]],[[132.229,34.763],[132.241,34.775]],[[132.207,34.748],[132.229,34.763]],[[132.153,34.717],[132.207,34.748]],[[132.144,34.705],[132.153,34.717]],[[132.142,34.693],[132.144,34.705]],[[132.142,34.693],[132.149,34.681]],[[132.149,34.681],[132.151,34.668]],[[132.147,34.659],[132.151,34.668]],[[132.131,34.639],[132.147,34.659]],[[132.123,34.625],[132.131,34.639]],[[132.119,34.612],[132.123,34.625]],[[132.116,34.595],[132.119,34.612]],[[132.11,34.578],[132.116,34.595]],[[132.095,34.553],[132.11,34.578]],[[132.064,34.527],[132.095,34.553]],[[132.049,34.509],[132.064,34.527]],[[132.041,34.495],[132.049,34.509]],[[132.041,34.495],[132.043,34.482]],[[132.043,34.482],[132.048,34.474]],[[132.048,34.474],[132.05,34.458]],[[131.992,34.413],[132.05,34.458]],[[131.988,34.402],[131.992,34.413]],[[131.988,34.402],[131.99,34.386]],[[131.99,34.386],[131.997,34.378]],[[131.997,34.378],[132.0,34.372]],[[132.0,34.372],[132.002,34.364]],[[131.999,34.358],[132.002,34.364]],[[131.994,34.353],[131.999,34.358]],[[131.966,34.343],[131.994,34.353]],[[131.962,34.34],[131.966,34.343]],[[131.959,34.334],[131.962,34.34]],[[131.952,34.317],[131.959,34.334]],[[131.947,34.306],[131.952,34.317]],[[131.939,34.303],[131.947,34.306]],[[131.931,34.308],[131.939,34.303]],[[131.921,34.316],[131.931,34.308]],[[131.908,34.32],[131.921,34.316]],[[131.896,34.318],[131.908,34.32]],[[131.845,34.303],[131.896,34.318]],[[131.813,34.3],[131.845,34.303]],[[131.795,34.302],[131.813,34.3]],[[131.782,34.307],[131.795,34.302]],[[131.771,34.314],[131.782,34.307]],[[131.765,34.324],[131.771,34.314]],[[131.758,34.337],[131.765,34.324]],[[131.753,34.352],[131.758,34.337]],[[131.751,34.363],[131.753,34.352]],[[131.751,34.363],[131.751,34.374]],[[131.751,34.374],[131.755,34.382]],[[131.755,34.382],[131.773,34.404]],[[131.773,34.404],[131.773,34.41]],[[131.768,34.416],[131.773,34.41]],[[131.696,34.429],[131.768,34.416]],[[131.683,34.438],[131.696,34.429]],[[131.679,34.447],[131.683,34.438]],[[131.679,34.447],[131.682,34.457]],[[131.681,34.468],[131.682,34.457]],[[131.672,34.479],[131.681,34.468]],[[131.667,34.496],[131.672,34.479]],[[131.667,34.496],[131.669,34.51]],[[131.669,34.51],[131.678,34.524]],[[131.678,34.524],[131.693,34.555]],[[131.693,34.555],[131.699,34.562]],[[131.699,34.562],[131.703,34.571]],[[131.703,34.571],[131.703,34.581]],[[131.686,34.616],[131.703,34.581]],[[131.682,34.625],[131.686,34.616]],[[131.679,34.641],[131.682,34.625]],[[131.679,34.641],[131.679,34.649]],[[131.679,34.649],[131.68,34.662]],[[131.68,34.662],[131.68,34.666]],[[131.676,34.672],[131.68,34.666]],[[132.05,34.458],[132.061,34.435]],[[132.061,34.435],[132.071,34.359]],[[132.071,34.359],[132.126,34.249]],[[132.126,34.249],[132.144,34.228]],[[132.144,34.228],[132.161,34.218]],[[132.161,34.218],[132.171,34.216]],[[132.171,34.216],[132.2,34.202]],[[132.2,34.202],[132.233,34.192]],[[132.233,34.192],[132.24,34.19]],[[134.366,35.6],[134.369,35.598]],[[134.369,35.598],[134.398,35.579]],[[134.398,35.579],[134.417,35.544]],[[134.417,35.544],[134.444,35.439]],[[134.444,35.439],[134.468,35.4]],[[134.468,35.4],[134.474,35.383]],[[134.474,35.383],[134.479,35.362]],[[134.479,35.362],[134.502,35.332]],[[134.502,35.332],[134.506,35.322]],[[134.506,35.322],[134.508,35.314]],[[134.508,35.306],[134.508,35.314]],[[134.508,35.306],[134.511,35.289]],[[134.51,35.272],[134.511,35.289]],[[134.505,35.258],[134.51,35.272]],[[134.492,35.244],[134.505,35.258]],[[134.463,35.225],[134.492,35.244]],[[134.448,35.219],[134.463,35.225]],[[134.436,35.217],[134.448,35.219]],[[134.423,35.221],[134.436,35.217]],[[134.416,35.226],[134.423,35.221]],[[134.396,35.229],[134.416,35.226]],[[134.348,35.206],[134.396,35.229]],[[134.325,35.192],[134.348,35.206]],[[134.308,35.187],[134.325,35.192]],[[134.296,35.186],[134.308,35.187]],[[134.284,35.188],[134.296,35.186]],[[134.269,35.188],[134.284,35.188]],[[134.247,35.186],[134.269,35.188]],[[134.189,35.165],[134.247,35.186]],[[134.175,35.162],[134.189,35.165]],[[134.164,35.167],[134.175,35.162]],[[134.159,35.18],[134.164,35.167]],[[134.156,35.193],[134.159,35.18]],[[134.152,35.202],[134.156,35.193]],[[134.144,35.215],[134.152,35.202]],[[134.14,35.227],[134.144,35.215]],[[134.132,35.243],[134.14,35.227]],[[134.114,35.261],[134.132,35.243]],[[134.081,35.279],[134.114,35.261]],[[134.007,35.288],[134.081,35.279]],[[134.001,35.291],[134.007,35.288]],[[134.0,35.294],[134.001,35.291]],[[133.998,35.298],[134.0,35.294]],[[133.998,35.298],[134.001,35.305]],[[134.001,35.305],[134.001,35.31]],[[134.0,35.317],[134.001,35.31]],[[133.987,35.325],[134.0,35.317]],[[133.971,35.327],[133.987,35.325]],[[133.95,35.326],[133.971,35.327]],[[133.929,35.319],[133.95,35.326]],[[133.918,35.311],[133.929,35.319]],[[133.91,35.3],[133.918,35.311]],[[133.901,35.292],[133.91,35.3]],[[133.868,35.28],[133.901,35.292]],[[133.857,35.273],[133.868,35.28]],[[133.849,35.264],[133.857,35.273]],[[133.844,35.254],[133.849,35.264]],[[133.834,35.243],[133.844,35.254]],[[133.823,35.239],[133.834,35.243]],[[133.811,35.242],[133.823,35.239]],[[133.784,35.27],[133.811,35.242]],[[133.77,35.28],[133.784,35.27]],[[133.756,35.288],[133.77,35.28]],[[133.735,35.295],[133.756,35.288]],[[133.608,35.322],[133.735,35.295]],[[133.592,35.321],[133.608,35.322]],[[133.58,35.315],[133.592,35.321]],[[133.574,35.306],[133.58,35.315]],[[133.561,35.282],[133.574,35.306]],[[133.55,35.25],[133.561,35.282]],[[133.545,35.241],[133.55,35.25]],[[133.536,35.234],[133.545,35.241]],[[133.524,35.228],[133.536,35.234]],[[133.513,35.221],[133.524,35.228]],[[133.507,35.211],[133.513,35.221]],[[133.505,35.197],[133.507,35.211]],[[133.505,35.188],[133.505,35.197]],[[133.504,35.181],[133.505,35.188]],[[133.501,35.177],[133.504,35.181]],[[133.496,35.175],[133.501,35.177]],[[133.447,35.159],[133.496,35.175]],[[133.397,35.157],[133.447,35.159]],[[133.387,35.15],[133.397,35.157]],[[133.383,35.142],[133.387,35.15]],[[133.383,35.133],[133.383,35.142]],[[133.383,35.133],[133.384,35.124]],[[133.383,35.115],[133.384,35.124]],[[133.378,35.106],[133.383,35.115]],[[133.36,35.095],[133.378,35.106]],[[133.307,35.076],[133.36,35.095]],[[133.289,35.072],[133.307,35.076]],[[133.28,35.066],[133.289,35.072]],[[133.264,35.051],[133.28,35.066]],[[133.229,35.06],[133.264,35.051]],[[133.166,35.062],[133.229,35.06]],[[133.128,35.067],[133.166,35.062]],[[134.863,35.658],[134.867,35.622]],[[134.867,35.611],[134.867,35.622]],[[134.865,35.601],[134.867,35.611]],[[134.865,35.601],[134.866,35.584]],[[134.866,35.584],[134.868,35.571]],[[134.868,35.571],[134.873,35.559]],[[134.873,35.559],[134.884,35.544]],[[134.884,35.544],[134.911,35.513]],[[134.911,35.513],[134.934,35.501]],[[134.934,35.501],[134.954,35.497]],[[134.954,35.497],[134.971,35.501]],[[134.971,35.501],[135.002,35.515]],[[135.002,35.515],[135.012,35.518]],[[135.012,35.518],[135.024,35.519]],[[135.024,35.519],[135.035,35.513]],[[135.035,35.513],[135.044,35.503]],[[135.044,35.503],[135.047,35.482]],[[135.047,35.482],[135.05,35.416]],[[135.049,35.406],[135.05,35.416]],[[135.045,35.395],[135.049,35.406]],[[135.038,35.385],[135.045,35.395]],[[135.031,35.377],[135.038,35.385]],[[135.024,35.37],[135.031,35.377]],[[135.015,35.366],[135.024,35.37]],[[135.003,35.366],[135.015,35.366]],[[134.995,35.367],[135.003,35.366]],[[134.985,35.37],[134.995,35.367]],[[134.963,35.382],[134.985,35.37]],[[134.95,35.387],[134.963,35.382]],[[134.939,35.386],[134.95,35.387]],[[134.93,35.38],[134.939,35.386]],[[134.926,35.368],[134.93,35.38]],[[134.924,35.357],[134.926,35.368]],[[134.921,35.318],[134.924,35.357]],[[134.921,35.318],[134.922,35.311]],[[134.922,35.311],[134.927,35.302]],[[134.927,35.302],[134.937,35.294]],[[134.937,35.294],[134.955,35.286]],[[134.955,35.286],[134.99,35.278]],[[134.99,35.278],[135.002,35.272]],[[135.002,35.272],[135.014,35.264]],[[135.014,35.264],[135.028,35.252]],[[135.028,35.252],[135.065,35.241]],[[135.065,35.241],[135.078,35.234]],[[135.078,35.234],[135.094,35.235]],[[135.094,35.235],[135.117,35.246]],[[135.117,35.246],[135.127,35.248]],[[135.127,35.248],[135.147,35.247]],[[135.147,35.247],[135.153,35.245]],[[135.153,35.245],[135.159,35.24]],[[135.159,35.24],[135.172,35.209]],[[135.172,35.209],[135.188,35.184]],[[135.188,35.184],[135.201,35.17]],[[135.201,35.17],[135.225,35.157]],[[135.225,35.157],[135.244,35.158]],[[135.244,35.158],[135.259,35.157]],[[135.259,35.157],[135.274,35.152]],[[135.274,35.152],[135.286,35.144]],[[135.286,35.144],[135.294,35.132]],[[135.294,35.132],[135.305,35.129]],[[135.305,35.129],[135.331,35.133]],[[135.331,35.133],[135.344,35.129]],[[135.344,35.129],[135.379,35.108]],[[135.379,35.108],[135.389,35.1]],[[135.389,35.1],[135.396,35.088]],[[135.396,35.088],[135.401,35.077]],[[135.397,35.064],[135.401,35.077]],[[135.379,35.049],[135.397,35.064]],[[135.36,35.039],[135.379,35.049]],[[135.347,35.034],[135.36,35.039]],[[135.339,35.03],[135.347,35.034]],[[135.339,35.022],[135.339,35.03]],[[135.339,35.022],[135.342,35.015]],[[135.342,35.015],[135.363,34.997]],[[135.363,34.997],[135.367,34.953]],[[135.367,34.953],[135.399,34.924]],[[135.399,34.924],[135.432,34.911]],[[135.432,34.911],[135.44,34.904]],[[135.439,34.89],[135.44,34.904]],[[135.439,34.89],[135.44,34.865]],[[135.439,34.85],[135.44,34.865]],[[135.435,34.834],[135.439,34.85]],[[135.433,34.816],[135.435,34.834]],[[135.433,34.794],[135.433,34.816]],[[135.433,34.794],[135.444,34.761]],[[135.444,34.761],[135.449,34.729]],[[135.446,34.723],[135.449,34.729]],[[135.445,34.719],[135.446,34.723]],[[135.442,34.716],[135.445,34.719]],[[135.433,34.706],[135.442,34.716]],[[135.413,34.692],[135.433,34.706]],[[134.305,34.709],[134.314,34.732]],[[134.314,34.732],[134.316,34.744]],[[134.314,34.761],[134.316,34.744]],[[134.311,34.77],[134.314,34.761]],[[134.306,34.778],[134.311,34.77]],[[134.289,34.8],[134.306,34.778]],[[134.26,34.821],[134.289,34.8]],[[134.257,34.836],[134.26,34.821]],[[134.257,34.836],[134.258,34.851]],[[134.258,34.851],[134.264,34.873]],[[134.264,34.873],[134.264,34.897]],[[134.259,34.937],[134.264,34.897]],[[134.259,34.937],[134.265,34.967]],[[134.265,34.967],[134.266,34.982]],[[134.265,34.994],[134.266,34.982]],[[134.264,35.0],[134.265,34.994]],[[134.264,35.0],[134.264,35.001]],[[134.264,35.001],[134.265,35.003]],[[134.265,35.003],[134.313,35.041]],[[134.313,35.041],[134.363,35.111]],[[134.363,35.111],[134.374,35.123]],[[134.374,35.123],[134.386,35.132]],[[134.386,35.132],[134.394,35.141]],[[134.394,35.141],[134.397,35.152]],[[134.394,35.171],[134.397,35.152]],[[134.388,35.188],[134.394,35.171]],[[134.388,35.188],[134.396,35.217]],[[134.396,35.217],[134.396,35.229]],[[135.476,35.54],[135.479,35.544]],[[135.463,35.534],[135.476,35.54]],[[135.452,35.527],[135.463,35.534]],[[135.442,35.518],[135.452,35.527]],[[135.439,35.509],[135.442,35.518]],[[135.439,35.509],[135.444,35.499]],[[135.444,35.499],[135.45,35.49]],[[135.45,35.49],[135.453,35.48]],[[135.453,35.475],[135.453,35.48]],[[135.447,35.462],[135.453,35.475]],[[135.447,35.452],[135.447,35.462]],[[135.447,35.452],[135.453,35.439]],[[135.453,35.439],[135.485,35.406]],[[135.485,35.406],[135.503,35.393]],[[135.503,35.393],[135.51,35.382]],[[135.51,35.382],[135.519,35.373]],[[135.519,35.373],[135.539,35.364]],[[135.539,35.364],[135.688,35.33]],[[135.688,35.33],[135.743,35.338]],[[135.743,35.338],[135.772,35.317]],[[135.772,35.317],[135.827,35.263]],[[135.827,35.263],[135.829,35.248]],[[135.819,35.212],[135.829,35.248]],[[135.819,35.212],[135.82,35.199]],[[135.82,35.199],[135.834,35.154]],[[135.834,35.154],[135.836,35.136]],[[135.836,35.136],[135.837,35.121]],[[135.815,35.006],[135.837,35.121]],[[135.815,35.001],[135.815,35.006]],[[135.815,35.001],[135.825,34.981]],[[135.825,34.981],[135.839,34.961]],[[135.839,34.961],[135.854,34.934]],[[135.854,34.934],[135.856,34.919]],[[135.856,34.905],[135.856,34.919]],[[135.855,34.89],[135.856,34.905]],[[135.855,34.89],[135.859,34.88]],[[135.859,34.88],[135.863,34.874]],[[135.863,34.874],[135.874,34.868]],[[135.874,34.868],[135.886,34.865]],[[135.886,34.865],[135.902,34.865]],[[135.902,34.865],[135.916,34.867]],[[135.916,34.867],[135.929,34.86]],[[135.929,34.86],[135.936,34.849]],[[135.936,34.849],[135.943,34.84]],[[135.943,34.84],[135.952,34.834]],[[135.952,34.834],[135.977,34.823]],[[135.977,34.823],[135.989,34.814]],[[135.989,34.814],[135.998,34.803]],[[135.998,34.803],[136.002,34.793]],[[136.002,34.793],[136.003,34.774]],[[136.003,34.774],[136.036,34.715]],[[136.029,34.704],[136.036,34.715]],[[136.02,34.698],[136.029,34.704]],[[136.009,34.696],[136.02,34.698]],[[135.999,34.698],[136.009,34.696]],[[135.985,34.703],[135.999,34.698]],[[135.965,34.714],[135.985,34.703]],[[135.932,34.724],[135.965,34.714]],[[135.91,34.724],[135.932,34.724]],[[135.89,34.717],[135.91,34.724]],[[135.873,34.707],[135.89,34.717]],[[135.849,34.699],[135.873,34.707]],[[135.832,34.699],[135.849,34.699]],[[135.818,34.704],[135.832,34.699]],[[135.809,34.709],[135.818,34.704]],[[135.768,34.72],[135.809,34.709]],[[135.753,34.726],[135.768,34.72]],[[135.739,34.734],[135.753,34.726]],[[135.722,34.749],[135.739,34.734]],[[135.706,34.76],[135.722,34.749]],[[135.706,34.76],[135.715,34.785]],[[135.708,34.811],[135.715,34.785]],[[135.701,34.823],[135.708,34.811]],[[135.683,34.844],[135.701,34.823]],[[135.646,34.899],[135.683,34.844]],[[135.634,34.91],[135.646,34.899]],[[135.621,34.914],[135.634,34.91]],[[135.61,34.913],[135.621,34.914]],[[135.598,34.92],[135.61,34.913]],[[135.583,34.947],[135.598,34.92]],[[135.574,34.951],[135.583,34.947]],[[135.566,34.947],[135.574,34.951]],[[135.561,34.94],[135.566,34.947]],[[135.557,34.933],[135.561,34.94]],[[135.557,34.933],[135.561,34.925]],[[135.561,34.925],[135.564,34.916]],[[135.557,34.911],[135.564,34.916]],[[135.538,34.91],[135.557,34.911]],[[135.504,34.925],[135.538,34.91]],[[135.486,34.938],[135.504,34.925]],[[135.472,34.955],[135.486,34.938]],[[135.458,34.975],[135.472,34.955]],[[135.444,34.984],[135.458,34.975]],[[135.43,34.988],[135.444,34.984]],[[135.393,34.99],[135.43,34.988]],[[135.363,34.997],[135.393,34.99]],[[136.227,36.286],[136.241,36.272]],[[136.241,36.272],[136.243,36.27]],[[136.243,36.27],[136.276,36.251]],[[136.276,36.251],[136.28,36.248]],[[136.28,36.248],[136.287,36.242]],[[136.287,36.242],[136.29,36.236]],[[136.29,36.236],[136.294,36.225]],[[136.294,36.225],[136.301,36.196]],[[136.301,36.196],[136.305,36.184]],[[136.305,36.184],[136.312,36.174]],[[136.312,36.174],[136.323,36.166]],[[136.323,36.166],[136.336,36.162]],[[136.336,36.162],[136.359,36.159]],[[136.359,36.159],[136.378,36.155]],[[136.378,36.155],[136.417,36.14]],[[136.417,36.14],[136.436,36.14]],[[136.436,36.14],[136.449,36.145]],[[136.449,36.145],[136.463,36.147]],[[136.463,36.147],[136.495,36.146]],[[136.495,36.146],[136.533,36.14]],[[136.533,36.14],[136.566,36.124]],[[136.566,36.124],[136.587,36.108]],[[136.587,36.108],[136.623,36.074]],[[136.623,36.074],[136.637,36.066]],[[136.637,36.066],[136.656,36.063]],[[136.656,36.063],[136.721,36.075]],[[136.721,36.075],[136.724,36.06]],[[136.722,36.051],[136.724,36.06]],[[136.716,36.039],[136.722,36.051]],[[136.707,36.014],[136.716,36.039]],[[136.703,35.973],[136.707,36.014]],[[136.699,35.956],[136.703,35.973]],[[136.699,35.944],[136.699,35.956]],[[136.699,35.944],[136.701,35.932]],[[136.701,35.932],[136.708,35.923]],[[136.708,35.923],[136.717,35.915]],[[136.717,35.915],[136.728,35.91]],[[136.728,35.91],[136.754,35.904]],[[136.754,35.904],[136.766,35.898]],[[136.766,35.898],[136.779,35.887]],[[136.779,35.887],[136.792,35.869]],[[136.792,35.869],[136.802,35.85]],[[136.802,35.85],[136.803,35.836]],[[136.796,35.824],[136.803,35.836]],[[136.783,35.813],[136.796,35.824]],[[136.769,35.791],[136.783,35.813]],[[136.758,35.784],[136.769,35.791]],[[136.727,35.783],[136.758,35.784]],[[136.71,35.781],[136.727,35.783]],[[136.687,35.774],[136.71,35.781]],[[136.669,35.774],[136.687,35.774]],[[136.634,35.779],[136.669,35.774]],[[136.612,35.779],[136.634,35.779]],[[136.508,35.762],[136.612,35.779]],[[136.495,35.756],[136.508,35.762]],[[136.489,35.748],[136.495,35.756]],[[136.484,35.739],[136.489,35.748]],[[136.476,35.74],[136.484,35.739]],[[136.455,35.752],[136.476,35.74]],[[136.443,35.754],[136.455,35.752]],[[136.43,35.755],[136.443,35.754]],[[136.415,35.754],[136.43,35.755]],[[136.399,35.756],[136.415,35.754]],[[136.365,35.766],[136.399,35.756]],[[136.35,35.768],[136.365,35.766]],[[136.337,35.766],[136.35,35.768]],[[136.324,35.762],[136.337,35.766]],[[136.313,35.755],[136.324,35.762]],[[136.304,35.744],[136.313,35.755]],[[136.29,35.695],[136.304,35.744]],[[136.257,35.646],[136.29,35.695]],[[136.167,35.675],[136.257,35.646]],[[136.147,35.671],[136.167,35.675]],[[136.128,35.664],[136.147,35.671]],[[136.124,35.655],[136.128,35.664]],[[136.124,35.649],[136.124,35.655]],[[136.124,35.649],[136.132,35.633]],[[136.132,35.633],[136.133,35.627]],[[136.133,35.627],[136.134,35.611]],[[136.134,35.611],[136.143,35.593]],[[136.143,35.593],[136.146,35.582]],[[136.145,35.571],[136.146,35.582]],[[136.135,35.558],[136.145,35.571]],[[136.122,35.556],[136.135,35.558]],[[136.109,35.558],[136.122,35.556]],[[136.096,35.558],[136.109,35.558]],[[136.09,35.551],[136.096,35.558]],[[136.089,35.543],[136.09,35.551]],[[136.089,35.543],[136.09,35.532]],[[136.089,35.523],[136.09,35.532]],[[136.081,35.514],[136.089,35.523]],[[136.071,35.515],[136.081,35.514]],[[136.057,35.514],[136.071,35.515]],[[136.044,35.512],[136.057,35.514]],[[136.016,35.503],[136.044,35.512]],[[135.992,35.485],[136.016,35.503]],[[135.98,35.48],[135.992,35.485]],[[135.967,35.482],[135.98,35.48]],[[135.955,35.487],[135.967,35.482]],[[135.945,35.497],[135.955,35.487]],[[135.938,35.501],[135.945,35.497]],[[135.931,35.503],[135.938,35.501]],[[135.926,35.497],[135.931,35.503]],[[135.921,35.489],[135.926,35.497]],[[135.901,35.414],[135.921,35.489]],[[135.894,35.401],[135.901,35.414]],[[135.886,35.391],[135.894,35.401]],[[135.876,35.382],[135.886,35.391]],[[135.867,35.38],[135.876,35.382]],[[135.855,35.382],[135.867,35.38]],[[135.841,35.387],[135.855,35.382]],[[135.818,35.385],[135.841,35.387]],[[135.799,35.377],[135.818,35.385]],[[135.743,35.338],[135.799,35.377]],[[137.043,36.956],[137.044,36.956]],[[137.009,36.953],[137.043,36.956]],[[136.991,36.953],[137.009,36.953]],[[136.979,36.951],[136.991,36.953]],[[136.951,36.94],[136.979,36.951]],[[136.938,36.938],[136.951,36.94]],[[136.927,36.938],[136.938,36.938]],[[136.915,36.937],[136.927,36.938]],[[136.905,36.933],[136.915,36.937]],[[136.894,36.926],[136.905,36.933]],[[136.872,36.902],[136.894,36.926]],[[136.86,36.887],[136.872,36.902]],[[136.833,36.829],[136.86,36.887]],[[136.827,36.813],[136.833,36.829]],[[136.824,36.791],[136.827,36.813]],[[136.812,36.753],[136.824,36.791]],[[136.804,36.743],[136.812,36.753]],[[136.784,36.727],[136.804,36.743]],[[136.777,36.719],[136.784,36.727]],[[136.777,36.719],[136.778,36.706]],[[136.778,36.706],[136.781,36.695]],[[136.781,36.695],[136.786,36.685]],[[136.786,36.685],[136.788,36.675]],[[136.787,36.665],[136.788,36.675]],[[136.769,36.622],[136.787,36.665]],[[136.769,36.622],[136.77,36.603]],[[136.77,36.603],[136.773,36.589]],[[136.773,36.589],[136.783,36.557]],[[136.783,36.557],[136.784,36.543]],[[136.779,36.525],[136.784,36.543]],[[136.774,36.513],[136.779,36.525]],[[136.768,36.497],[136.774,36.513]],[[136.758,36.44],[136.768,36.497]],[[136.758,36.419],[136.758,36.44]],[[136.758,36.419],[136.762,36.403]],[[136.762,36.403],[136.769,36.391]],[[136.769,36.391],[136.773,36.377]],[[136.773,36.377],[136.774,36.36]],[[136.766,36.335],[136.774,36.36]],[[136.764,36.322],[136.766,36.335]],[[136.764,36.322],[136.773,36.292]],[[136.773,36.292],[136.784,36.273]],[[136.784,36.273],[136.792,36.265]],[[136.792,36.265],[136.813,36.247]],[[136.813,36.247],[136.817,36.235]],[[136.812,36.22],[136.817,36.235]],[[136.763,36.162],[136.812,36.22]],[[136.754,36.148],[136.763,36.162]],[[136.745,36.106],[136.754,36.148]],[[136.721,36.075],[136.745,36.106]],[[137.615,36.975],[137.617,36.969]],[[137.617,36.969],[137.637,36.951]],[[137.637,36.951],[137.672,36.935]],[[137.672,36.935],[137.685,36.926]],[[137.685,36.926],[137.695,36.912]],[[137.695,36.912],[137.733,36.775]],[[137.733,36.775],[137.734,36.668]],[[137.73,36.645],[137.734,36.668]],[[137.728,36.621],[137.73,36.645]],[[137.725,36.605],[137.728,36.621]],[[137.719,36.59],[137.725,36.605]],[[137.702,36.572],[137.719,36.59]],[[137.686,36.559],[137.702,36.572]],[[137.676,36.549],[137.686,36.559]],[[137.672,36.539],[137.676,36.549]],[[137.672,36.539],[137.675,36.528]],[[137.675,36.528],[137.676,36.519]],[[137.671,36.507],[137.676,36.519]],[[137.657,36.492],[137.671,36.507]],[[137.643,36.468],[137.657,36.492]],[[137.628,36.435],[137.643,36.468]],[[137.621,36.424],[137.628,36.435]],[[137.611,36.414],[137.621,36.424]],[[137.581,36.395],[137.611,36.414]],[[137.565,36.377],[137.581,36.395]],[[137.526,36.388],[137.565,36.377]],[[137.478,36.406],[137.526,36.388]],[[137.414,36.415],[137.478,36.406]],[[137.388,36.423],[137.414,36.415]],[[137.358,36.437],[137.388,36.423]],[[137.341,36.44],[137.358,36.437]],[[137.329,36.436],[137.341,36.44]],[[137.319,36.429],[137.329,36.436]],[[137.308,36.424],[137.319,36.429]],[[137.295,36.421],[137.308,36.424]],[[137.287,36.425],[137.295,36.421]],[[137.285,36.431],[137.287,36.425]],[[137.285,36.431],[137.286,36.437]],[[137.286,36.437],[137.288,36.445]],[[137.285,36.451],[137.288,36.445]],[[137.276,36.452],[137.285,36.451]],[[137.264,36.45],[137.276,36.452]],[[137.2,36.429],[137.264,36.45]],[[137.188,36.43],[137.2,36.429]],[[137.176,36.432],[137.188,36.43]],[[137.161,36.437],[137.176,36.432]],[[137.146,36.433],[137.161,36.437]],[[137.133,36.425],[137.146,36.433]],[[137.081,36.379],[137.133,36.425]],[[137.067,36.369],[137.081,36.379]],[[137.054,36.363],[137.067,36.369]],[[137.046,36.357],[137.054,36.363]],[[137.042,36.351],[137.046,36.357]],[[137.039,36.34],[137.042,36.351]],[[137.035,36.33],[137.039,36.34]],[[137.027,36.319],[137.035,36.33]],[[137.017,36.313],[137.027,36.319]],[[137.005,36.308],[137.017,36.313]],[[136.998,36.304],[137.005,36.308]],[[136.977,36.283],[136.998,36.304]],[[136.958,36.273],[136.977,36.283]],[[136.946,36.276],[136.958,36.273]],[[136.943,36.284],[136.946,36.276]],[[136.943,36.284],[136.949,36.303]],[[136.949,36.303],[136.949,36.311]],[[136.945,36.319],[136.949,36.311]],[[136.936,36.327],[136.945,36.319]],[[136.922,36.333],[136.936,36.327]],[[136.899,36.337],[136.922,36.333]],[[136.881,36.338],[136.899,36.337]],[[136.85,36.343],[136.881,36.338]],[[136.837,36.338],[136.85,36.343]],[[136.829,36.329],[136.837,36.338]],[[136.823,36.315],[136.829,36.329]],[[136.819,36.303],[136.823,36.315]],[[136.815,36.294],[136.819,36.303]],[[136.806,36.289],[136.815,36.294]],[[136.797,36.288],[136.806,36.289]],[[136.773,36.292],[136.797,36.288]],[[139.549,38.545],[139.562,38.542]],[[139.562,38.542],[139.653,38.51]],[[139.653,38.51],[139.68,38.504]],[[139.68,38.504],[139.694,38.499]],[[139.694,38.499],[139.702,38.494]],[[139.701,38.487],[139.702,38.494]],[[139.7,38.478],[139.701,38.487]],[[139.699,38.467],[139.7,38.478]],[[139.699,38.467],[139.7,38.452]],[[139.696,38.416],[139.7,38.452]],[[139.696,38.416],[139.701,38.399]],[[139.701,38.399],[139.709,38.388]],[[139.709,38.388],[139.722,38.377]],[[139.722,38.377],[139.735,38.368]],[[139.735,38.368],[139.749,38.36]],[[139.749,38.36],[139.763,38.355]],[[139.763,38.355],[139.792,38.356]],[[139.792,38.356],[139.806,38.354]],[[139.806,38.354],[139.847,38.33]],[[139.847,38.33],[139.855,38.322]],[[139.855,38.322],[139.862,38.314]],[[139.862,38.314],[139.869,38.301]],[[139.869,38.301],[139.871,38.286]],[[139.864,38.266],[139.871,38.286]],[[139.855,38.252],[139.864,38.266]],[[139.844,38.241],[139.855,38.252]],[[139.808,38.219],[139.844,38.241]],[[139.794,38.212],[139.808,38.219]],[[139.778,38.209],[139.794,38.212]],[[139.755,38.208],[139.778,38.209]],[[139.716,38.21],[139.755,38.208]],[[139.701,38.209],[139.716,38.21]],[[139.687,38.202],[139.701,38.209]],[[139.679,38.188],[139.687,38.202]],[[139.665,38.072],[139.679,38.188]],[[139.645,38.041],[139.665,38.072]],[[139.642,38.029],[139.645,38.041]],[[139.642,38.029],[139.644,38.001]],[[139.644,38.0],[139.644,38.001]],[[139.635,37.98],[139.644,38.0]],[[139.632,37.969],[139.635,37.98]],[[139.63,37.945],[139.632,37.969]],[[139.62,37.922],[139.63,37.945]],[[139.617,37.91],[139.62,37.922]],[[139.617,37.91],[139.619,37.896]],[[139.619,37.896],[139.631,37.879]],[[139.631,37.879],[139.654,37.859]],[[139.654,37.859],[139.688,37.843]],[[139.688,37.843],[139.725,37.82]],[[139.686,37.78],[139.725,37.82]],[[139.666,37.764],[139.686,37.78]],[[139.595,37.68],[139.666,37.764]],[[139.548,37.638],[139.595,37.68]],[[139.537,37.624],[139.548,37.638]],[[139.533,37.614],[139.537,37.624]],[[139.533,37.614],[139.536,37.604]],[[139.536,37.604],[139.539,37.597]],[[139.539,37.597],[139.544,37.589]],[[139.544,37.589],[139.55,37.577]],[[139.55,37.577],[139.553,37.563]],[[139.553,37.563],[139.556,37.518]],[[139.554,37.506],[139.556,37.518]],[[139.544,37.504],[139.554,37.506]],[[139.515,37.509],[139.544,37.504]],[[139.503,37.508],[139.515,37.509]],[[139.48,37.502],[139.503,37.508]],[[139.467,37.501],[139.48,37.502]],[[139.42,37.503],[139.467,37.501]],[[139.404,37.496],[139.42,37.503]],[[139.395,37.488],[139.404,37.496]],[[139.381,37.461],[139.395,37.488]],[[139.371,37.458],[139.381,37.461]],[[139.341,37.462],[139.371,37.458]],[[139.326,37.461],[139.341,37.462]],[[139.264,37.447],[139.326,37.461]],[[139.226,37.447],[139.264,37.447]],[[139.209,37.441],[139.226,37.447]],[[139.196,37.429],[139.209,37.441]],[[139.189,37.418],[139.196,37.429]],[[139.187,37.408],[139.189,37.418]],[[139.187,37.408],[139.189,37.399]],[[139.189,37.399],[139.197,37.39]],[[139.197,37.39],[139.204,37.38]],[[139.204,37.38],[139.208,37.367]],[[139.208,37.355],[139.208,37.367]],[[139.194,37.297],[139.208,37.355]],[[139.188,37.284],[139.194,37.297]],[[139.16,37.241],[139.188,37.284]],[[139.156,37.226],[139.16,37.241]],[[139.156,37.226],[139.159,37.214]],[[139.159,37.214],[139.173,37.196]],[[139.173,37.196],[139.178,37.19]],[[139.178,37.19],[139.187,37.19]],[[139.187,37.19],[139.195,37.192]],[[139.195,37.192],[139.204,37.192]],[[139.204,37.192],[139.21,37.185]],[[139.21,37.185],[139.231,37.149]],[[139.231,37.149],[139.235,37.14]],[[139.235,37.14],[139.236,37.129]],[[139.235,37.116],[139.236,37.129]],[[139.235,37.091],[139.235,37.116]],[[139.235,37.091],[139.241,37.039]],[[139.239,37.028],[139.241,37.039]],[[139.231,37.001],[139.239,37.028]],[[139.227,36.962],[139.231,37.001]],[[139.215,36.946],[139.227,36.962]],[[139.201,36.951],[139.215,36.946]],[[139.19,36.952],[139.201,36.951]],[[139.178,36.954],[139.19,36.952]],[[139.168,36.96],[139.178,36.954]],[[139.156,36.988],[139.168,36.96]],[[139.151,36.995],[139.156,36.988]],[[139.143,37.0],[139.151,36.995]],[[139.142,37.001],[139.143,37.0]],[[139.136,37.004],[139.142,37.001]],[[139.129,37.008],[139.136,37.004]],[[139.125,37.013],[139.129,37.008]],[[139.116,37.025],[139.125,37.013]],[[139.112,37.029],[139.116,37.025]],[[139.105,37.036],[139.112,37.029]],[[139.092,37.039],[139.105,37.036]],[[139.08,37.037],[139.092,37.039]],[[139.072,37.027],[139.08,37.037]],[[139.063,37.009],[139.072,37.027]],[[139.057,37.001],[139.063,37.009]],[[139.054,36.999],[139.057,37.001]],[[139.034,36.987],[139.054,36.999]],[[138.974,36.972],[139.034,36.987]],[[138.965,36.967],[138.974,36.972]],[[138.961,36.957],[138.965,36.967]],[[138.96,36.927],[138.961,36.957]],[[138.96,36.927],[138.964,36.913]],[[138.964,36.913],[138.965,36.902]],[[138.959,36.894],[138.965,36.902]],[[138.925,36.886],[138.959,36.894]],[[138.917,36.878],[138.925,36.886]],[[138.915,36.869],[138.917,36.878]],[[138.911,36.843],[138.915,36.869]],[[138.903,36.836],[138.911,36.843]],[[138.89,36.827],[138.903,36.836]],[[138.837,36.811],[138.89,36.827]],[[138.822,36.804],[138.837,36.811]],[[138.814,36.779],[138.822,36.804]],[[138.808,36.768],[138.814,36.779]],[[138.794,36.758],[138.808,36.768]],[[138.769,36.75],[138.794,36.758]],[[138.744,36.747],[138.769,36.75]],[[138.723,36.749],[138.744,36.747]],[[138.68,36.731],[138.723,36.749]],[[138.667,36.763],[138.68,36.731]],[[138.667,36.763],[138.67,36.823]],[[138.667,36.836],[138.67,36.823]],[[138.658,36.85],[138.667,36.836]],[[138.648,36.858],[138.658,36.85]],[[138.605,36.886],[138.648,36.858]],[[138.582,36.909],[138.605,36.886]],[[138.574,36.923],[138.582,36.909]],[[138.559,36.989],[138.574,36.923]],[[138.555,37.001],[138.559,36.989]],[[138.553,37.002],[138.555,37.001]],[[138.536,37.01],[138.553,37.002]],[[138.519,37.014],[138.536,37.01]],[[138.5,37.015],[138.519,37.014]],[[138.481,37.014],[138.5,37.015]],[[138.424,37.002],[138.481,37.014]],[[138.382,36.986],[138.424,37.002]],[[138.366,36.977],[138.382,36.986]],[[138.353,36.966],[138.366,36.977]],[[138.324,36.926],[138.353,36.966]],[[138.297,36.915],[138.324,36.926]],[[138.286,36.908],[138.297,36.915]],[[138.278,36.895],[138.286,36.908]],[[138.274,36.884],[138.278,36.895]],[[138.271,36.858],[138.274,36.884]],[[138.264,36.851],[138.271,36.858]],[[138.252,36.849],[138.264,36.851]],[[138.234,36.856],[138.252,36.849]],[[138.223,36.859],[138.234,36.856]],[[138.215,36.86],[138.223,36.859]],[[138.208,36.858],[138.215,36.86]],[[138.178,36.844],[138.208,36.858]],[[138.164,36.84],[138.178,36.844]],[[138.146,36.837],[138.164,36.84]],[[138.1,36.835],[138.146,36.837]],[[138.085,36.833],[138.1,36.835]],[[138.074,36.827],[138.085,36.833]],[[138.058,36.81],[138.074,36.827]],[[138.044,36.807],[138.058,36.81]],[[138.012,36.826],[138.044,36.807]],[[138.007,36.832],[138.012,36.826]],[[138.006,36.839],[138.007,36.832]],[[138.006,36.839],[138.009,36.864]],[[138.008,36.874],[138.009,36.864]],[[138.005,36.883],[138.008,36.874]],[[137.998,36.89],[138.005,36.883]],[[137.989,36.897],[137.998,36.89]],[[137.973,36.904],[137.989,36.897]],[[137.959,36.906],[137.973,36.904]],[[137.943,36.907],[137.959,36.906]],[[137.93,36.911],[137.943,36.907]],[[137.912,36.918],[137.93,36.911]],[[137.899,36.921],[137.912,36.918]],[[137.885,36.922],[137.899,36.921]],[[137.875,36.921],[137.885,36.922]],[[137.869,36.919],[137.875,36.921]],[[137.861,36.915],[137.869,36.919]],[[137.853,36.909],[137.861,36.915]],[[137.849,36.901],[137.853,36.909]],[[137.848,36.892],[137.849,36.901]],[[137.848,36.892],[137.85,36.874]],[[137.845,36.861],[137.85,36.874]],[[137.837,36.848],[137.845,36.861]],[[137.801,36.803],[137.837,36.848]],[[137.788,36.794],[137.801,36.803]],[[137.775,36.787],[137.788,36.794]],[[137.733,36.775],[137.775,36.787]],[[139.881,39.115],[139.886,39.115]],[[139.886,39.115],[139.963,39.098]],[[139.963,39.098],[139.974,39.099]],[[139.974,39.099],[139.985,39.102]],[[139.985,39.102],[139.995,39.106]],[[139.995,39.106],[140.012,39.11]],[[140.012,39.11],[140.024,39.108]],[[140.024,39.108],[140.035,39.105]],[[140.035,39.105],[140.069,39.077]],[[140.069,39.077],[140.104,39.057]],[[140.104,39.057],[140.126,39.048]],[[140.126,39.048],[140.151,39.045]],[[140.151,39.045],[140.165,39.045]],[[140.165,39.045],[140.178,39.041]],[[140.178,39.041],[140.185,39.034]],[[140.185,39.034],[140.195,39.027]],[[140.195,39.027],[140.211,39.02]],[[140.211,39.02],[140.286,39.008]],[[140.286,39.008],[140.32,39.007]],[[140.32,39.007],[140.343,39.004]],[[140.343,39.004],[140.405,38.976]],[[140.405,38.976],[140.421,38.964]],[[140.421,38.964],[140.433,38.94]],[[140.433,38.94],[140.449,38.915]],[[140.449,38.915],[140.479,38.892]],[[140.479,38.892],[140.533,38.882]],[[140.533,38.882],[140.543,38.858]],[[140.543,38.858],[140.577,38.822]],[[140.577,38.822],[140.595,38.79]],[[140.595,38.79],[140.616,38.765]],[[140.616,38.765],[140.618,38.756]],[[140.616,38.747],[140.618,38.756]],[[140.609,38.736],[140.616,38.747]],[[140.607,38.732],[140.609,38.736]],[[140.605,38.71],[140.607,38.732]],[[140.605,38.71],[140.606,38.686]],[[140.604,38.672],[140.606,38.686]],[[140.599,38.66],[140.604,38.672]],[[140.591,38.65],[140.599,38.66]],[[140.582,38.643],[140.591,38.65]],[[140.568,38.642],[140.582,38.643]],[[140.552,38.644],[140.568,38.642]],[[140.541,38.642],[140.552,38.644]],[[140.534,38.631],[140.541,38.642]],[[140.534,38.631],[140.535,38.619]],[[140.535,38.619],[140.538,38.607]],[[140.538,38.607],[140.549,38.585]],[[140.549,38.585],[140.554,38.568]],[[140.554,38.568],[140.555,38.524]],[[140.555,38.524],[140.558,38.508]],[[140.558,38.508],[140.565,38.497]],[[140.565,38.497],[140.574,38.489]],[[140.574,38.489],[140.582,38.48]],[[140.582,38.48],[140.588,38.466]],[[140.585,38.453],[140.588,38.466]],[[140.573,38.43],[140.585,38.453]],[[140.56,38.395],[140.573,38.43]],[[140.552,38.386],[140.56,38.395]],[[140.543,38.379],[140.552,38.386]],[[140.523,38.358],[140.543,38.379]],[[140.512,38.333],[140.523,38.358]],[[140.503,38.319],[140.512,38.333]],[[140.483,38.295],[140.503,38.319]],[[140.474,38.282],[140.483,38.295]],[[140.468,38.268],[140.474,38.282]],[[140.461,38.245],[140.468,38.268]],[[140.461,38.245],[140.463,38.208]],[[140.462,38.191],[140.463,38.208]],[[140.459,38.175],[140.462,38.191]],[[140.451,38.152],[140.459,38.175]],[[140.441,38.139],[140.451,38.152]],[[140.414,38.114],[140.441,38.139]],[[140.397,38.091],[140.414,38.114]],[[140.379,38.079],[140.397,38.091]],[[140.361,38.069],[140.379,38.079]],[[140.345,38.065],[140.361,38.069]],[[140.309,38.062],[140.345,38.065]],[[140.295,38.057],[140.309,38.062]],[[140.282,38.045],[140.295,38.057]],[[140.277,38.03],[140.282,38.045]],[[140.27,37.964],[140.277,38.03]],[[140.27,37.926],[140.27,37.964]],[[140.267,37.907],[140.27,37.926]],[[140.265,37.872],[140.267,37.907]],[[140.265,37.872],[140.267,37.831]],[[140.267,37.831],[140.274,37.8]],[[140.269,37.781],[140.274,37.8]],[[140.261,37.769],[140.269,37.781]],[[140.231,37.747],[140.261,37.769]],[[140.223,37.743],[140.231,37.747]],[[140.214,37.741],[140.223,37.743]],[[140.203,37.738],[140.214,37.741]],[[140.192,37.739],[140.203,37.738]],[[140.182,37.74],[140.192,37.739]],[[140.173,37.743],[140.182,37.74]],[[140.162,37.742],[140.173,37.743]],[[140.149,37.738],[140.162,37.742]],[[140.131,37.727],[140.149,37.738]],[[140.117,37.723],[140.131,37.727]],[[140.104,37.723],[140.117,37.723]],[[140.094,37.727],[140.104,37.723]],[[140.072,37.745],[140.094,37.727]],[[140.061,37.752],[140.072,37.745]],[[140.049,37.756],[140.061,37.752]],[[140.036,37.757],[140.049,37.756]],[[140.008,37.754],[140.036,37.757]],[[139.999,37.754],[140.008,37.754]],[[139.991,37.757],[139.999,37.754]],[[139.979,37.762],[139.991,37.757]],[[139.966,37.773],[139.979,37.762]],[[139.946,37.8],[139.966,37.773]],[[139.932,37.812],[139.946,37.8]],[[139.917,37.815],[139.932,37.812]],[[139.904,37.808],[139.917,37.815]],[[139.89,37.805],[139.904,37.808]],[[139.878,37.806],[139.89,37.805]],[[139.85,37.812],[139.878,37.806]],[[139.826,37.811],[139.85,37.812]],[[139.806,37.806],[139.826,37.811]],[[139.791,37.806],[139.806,37.806]],[[139.776,37.809],[139.791,37.806]],[[139.765,37.816],[139.776,37.809]],[[139.725,37.82],[139.765,37.816]],[[139.944,40.429],[139.981,40.433]],[[139.981,40.433],[139.996,40.432]],[[139.996,40.432],[140.012,40.439]],[[140.012,40.439],[140.025,40.449]],[[140.025,40.449],[140.045,40.462]],[[140.045,40.462],[140.061,40.464]],[[140.061,40.464],[140.08,40.46]],[[140.08,40.46],[140.095,40.454]],[[140.095,40.454],[140.122,40.449]],[[140.122,40.449],[140.301,40.447]],[[140.301,40.447],[140.329,40.456]],[[140.329,40.456],[140.358,40.473]],[[140.358,40.473],[140.385,40.48]],[[140.385,40.48],[140.409,40.481]],[[140.409,40.481],[140.423,40.477]],[[140.423,40.477],[140.429,40.469]],[[140.429,40.469],[140.434,40.46]],[[140.434,40.46],[140.474,40.445]],[[140.474,40.445],[140.528,40.412]],[[140.528,40.412],[140.544,40.408]],[[140.544,40.408],[140.551,40.411]],[[140.551,40.411],[140.56,40.418]],[[140.56,40.418],[140.574,40.424]],[[140.574,40.424],[140.592,40.425]],[[140.592,40.425],[140.607,40.422]],[[140.607,40.422],[140.618,40.419]],[[140.618,40.419],[140.633,40.412]],[[140.633,40.412],[140.648,40.412]],[[140.648,40.412],[140.662,40.414]],[[140.662,40.414],[140.689,40.424]],[[140.689,40.424],[140.702,40.425]],[[140.702,40.425],[140.717,40.426]],[[140.717,40.426],[140.749,40.446]],[[140.749,40.446],[140.774,40.454]],[[140.774,40.454],[140.788,40.462]],[[140.788,40.462],[140.805,40.482]],[[140.805,40.482],[140.819,40.492]],[[140.819,40.492],[140.85,40.5]],[[140.85,40.5],[140.869,40.497]],[[140.869,40.497],[140.915,40.483]],[[140.915,40.483],[140.93,40.475]],[[140.93,40.475],[140.94,40.468]],[[140.94,40.468],[140.944,40.464]],[[140.944,40.464],[140.947,40.46]],[[140.947,40.46],[140.948,40.455]],[[140.948,40.455],[140.949,40.45]],[[140.946,40.444],[140.949,40.45]],[[140.942,40.44],[140.946,40.444]],[[140.939,40.435],[140.942,40.44]],[[140.937,40.433],[140.939,40.435]],[[140.937,40.433],[140.947,40.426]],[[140.947,40.426],[140.953,40.42]],[[140.953,40.42],[140.96,40.411]],[[140.96,40.411],[140.964,40.381]],[[140.963,40.369],[140.964,40.381]],[[140.957,40.357],[140.963,40.369]],[[140.952,40.348],[140.957,40.357]],[[140.948,40.339],[140.952,40.348]],[[140.944,40.319],[140.948,40.339]],[[140.936,40.298],[140.944,40.319]],[[140.934,40.286],[140.936,40.298]],[[140.934,40.271],[140.934,40.286]],[[140.926,40.244],[140.934,40.271]],[[140.907,40.229],[140.926,40.244]],[[140.885,40.217],[140.907,40.229]],[[140.871,40.202],[140.885,40.217]],[[140.855,40.181],[140.871,40.202]],[[140.855,40.181],[140.856,40.168]],[[140.856,40.168],[140.86,40.16]],[[140.86,40.16],[140.862,40.15]],[[140.86,40.142],[140.862,40.15]],[[140.857,40.133],[140.86,40.142]],[[140.856,40.117],[140.857,40.133]],[[140.856,40.104],[140.856,40.117]],[[140.851,40.092],[140.856,40.104]],[[140.842,40.077],[140.851,40.092]],[[140.838,40.066],[140.842,40.077]],[[140.838,40.054],[140.838,40.066]],[[140.838,40.054],[140.841,40.04]],[[140.841,40.04],[140.842,39.977]],[[140.842,39.977],[140.844,39.967]],[[140.844,39.967],[140.845,39.958]],[[140.845,39.958],[140.849,39.939]],[[140.849,39.939],[140.855,39.921]],[[140.855,39.921],[140.869,39.891]],[[140.869,39.891],[140.871,39.878]],[[140.864,39.87],[140.871,39.878]],[[140.854,39.867],[140.864,39.87]],[[140.842,39.867],[140.854,39.867]],[[140.83,39.869],[140.842,39.867]],[[140.817,39.868],[140.83,39.869]],[[140.805,39.866],[140.817,39.868]],[[140.794,39.86],[140.805,39.866]],[[140.786,39.85],[140.794,39.86]],[[140.783,39.84],[140.786,39.85]],[[140.783,39.829],[140.783,39.84]],[[140.783,39.829],[140.786,39.817]],[[140.786,39.817],[140.794,39.809]],[[140.794,39.809],[140.816,39.794]],[[140.816,39.794],[140.826,39.784]],[[140.825,39.775],[140.826,39.784]],[[140.819,39.765],[140.825,39.775]],[[140.804,39.746],[140.819,39.765]],[[140.797,39.735],[140.804,39.746]],[[140.79,39.72],[140.797,39.735]],[[140.79,39.72],[140.801,39.693]],[[140.801,39.693],[140.809,39.677]],[[140.809,39.677],[140.813,39.662]],[[140.813,39.662],[140.814,39.644]],[[140.81,39.631],[140.814,39.644]],[[140.806,39.622],[140.81,39.631]],[[140.791,39.599],[140.806,39.622]],[[140.748,39.56],[140.791,39.599]],[[140.739,39.547],[140.748,39.56]],[[140.729,39.529],[140.739,39.547]],[[140.714,39.493],[140.729,39.529]],[[140.676,39.435],[140.714,39.493]],[[140.658,39.392],[140.676,39.435]],[[140.658,39.392],[140.66,39.381]],[[140.66,39.381],[140.664,39.367]],[[140.664,39.367],[140.685,39.334]],[[140.685,39.334],[140.693,39.303]],[[140.693,39.303],[140.699,39.292]],[[140.699,39.292],[140.707,39.286]],[[140.707,39.286],[140.717,39.274]],[[140.717,39.274],[140.723,39.266]],[[140.723,39.266],[140.732,39.259]],[[140.732,39.259],[140.752,39.248]],[[140.752,39.248],[140.761,39.241]],[[140.761,39.241],[140.767,39.231]],[[140.767,39.231],[140.77,39.22]],[[140.769,39.206],[140.77,39.22]],[[140.769,39.206],[140.774,39.196]],[[140.774,39.196],[140.782,39.188]],[[140.782,39.188],[140.791,39.182]],[[140.791,39.182],[140.796,39.175]],[[140.794,39.168],[140.796,39.175]],[[140.786,39.163],[140.794,39.168]],[[140.775,39.157],[140.786,39.163]],[[140.764,39.148],[140.775,39.157]],[[140.753,39.128],[140.764,39.148]],[[140.749,39.113],[140.753,39.128]],[[140.749,39.113],[140.751,39.099]],[[140.751,39.099],[140.759,39.086]],[[140.759,39.086],[140.773,39.075]],[[140.773,39.075],[140.786,39.068]],[[140.786,39.068],[140.795,39.06]],[[140.795,39.06],[140.798,39.049]],[[140.795,39.039],[140.798,39.049]],[[140.775,39.004],[140.795,39.039]],[[140.759,38.952],[140.775,39.004]],[[140.734,38.943],[140.759,38.952]],[[140.725,38.937],[140.734,38.943]],[[140.71,38.928],[140.725,38.937]],[[140.696,38.917],[140.71,38.928]],[[140.642,38.889],[140.696,38.917]],[[140.578,38.872],[140.642,38.889]],[[140.558,38.872],[140.578,38.872]],[[140.544,38.874],[140.558,38.872]],[[140.533,38.882],[140.544,38.874]],[[141.674,40.448],[141.681,40.451]],[[141.588,40.407],[141.674,40.448]],[[141.578,40.396],[141.588,40.407]],[[141.574,40.386],[141.578,40.396]],[[141.571,40.376],[141.574,40.386]],[[141.565,40.368],[141.571,40.376]],[[141.553,40.359],[141.565,40.368]],[[141.537,40.356],[141.553,40.359]],[[141.511,40.359],[141.537,40.356]],[[141.474,40.369],[141.511,40.359]],[[141.454,40.367],[141.474,40.369]],[[141.431,40.362],[141.454,40.367]],[[141.383,40.346],[141.431,40.362]],[[141.357,40.34],[141.383,40.346]],[[141.335,40.343],[141.357,40.34]],[[141.326,40.35],[141.335,40.343]],[[141.315,40.355],[141.326,40.35]],[[141.303,40.355],[141.315,40.355]],[[141.242,40.334],[141.303,40.355]],[[141.088,40.263],[141.242,40.334]],[[141.025,40.219],[141.088,40.263]],[[141.013,40.213],[141.025,40.219]],[[141.002,40.211],[141.013,40.213]],[[140.988,40.214],[141.002,40.211]],[[140.974,40.219],[140.988,40.214]],[[140.926,40.244],[140.974,40.219]],[[141.634,38.97],[141.64,38.968]],[[141.595,38.976],[141.634,38.97]],[[141.568,38.986],[141.595,38.976]],[[141.54,38.99],[141.568,38.986]],[[141.515,38.99],[141.54,38.99]],[[141.499,38.987],[141.515,38.99]],[[141.486,38.977],[141.499,38.987]],[[141.482,38.964],[141.486,38.977]],[[141.482,38.947],[141.482,38.964]],[[141.482,38.947],[141.484,38.932]],[[141.484,38.921],[141.484,38.932]],[[141.481,38.911],[141.484,38.921]],[[141.477,38.905],[141.481,38.911]],[[141.47,38.897],[141.477,38.905]],[[141.462,38.89],[141.47,38.897]],[[141.455,38.882],[141.462,38.89]],[[141.451,38.873],[141.455,38.882]],[[141.45,38.864],[141.451,38.873]],[[141.45,38.864],[141.451,38.853]],[[141.45,38.833],[141.451,38.853]],[[141.45,38.833],[141.451,38.824]],[[141.449,38.816],[141.451,38.824]],[[141.443,38.809],[141.449,38.816]],[[141.417,38.789],[141.443,38.809]],[[141.407,38.785],[141.417,38.789]],[[141.355,38.805],[141.407,38.785]],[[141.334,38.809],[141.355,38.805]],[[141.321,38.813],[141.334,38.809]],[[141.309,38.81],[141.321,38.813]],[[141.303,38.804],[141.309,38.81]],[[141.297,38.797],[141.303,38.804]],[[141.289,38.791],[141.297,38.797]],[[141.261,38.778],[141.289,38.791]],[[141.251,38.772],[141.261,38.778]],[[141.236,38.758],[141.251,38.772]],[[141.228,38.754],[141.236,38.758]],[[141.218,38.754],[141.228,38.754]],[[141.181,38.774],[141.218,38.754]],[[141.146,38.786],[141.181,38.774]],[[141.133,38.799],[141.146,38.786]],[[141.114,38.822],[141.133,38.799]],[[141.112,38.831],[141.114,38.822]],[[141.112,38.831],[141.118,38.84]],[[141.118,38.84],[141.133,38.849]],[[141.133,38.849],[141.136,38.853]],[[141.136,38.853],[141.137,38.857]],[[141.129,38.864],[141.137,38.857]],[[141.113,38.869],[141.129,38.864]],[[141.074,38.873],[141.113,38.869]],[[141.005,38.873],[141.074,38.873]],[[140.993,38.875],[141.005,38.873]],[[140.976,38.88],[140.993,38.875]],[[140.907,38.914],[140.976,38.88]],[[140.816,38.947],[140.907,38.914]],[[140.759,38.952],[140.816,38.947]],[[140.927,37.89],[140.933,37.89]],[[140.878,37.888],[140.927,37.89]],[[140.865,37.883],[140.878,37.888]],[[140.855,37.876],[140.865,37.883]],[[140.853,37.868],[140.855,37.876]],[[140.853,37.868],[140.855,37.847]],[[140.855,37.838],[140.855,37.847]],[[140.853,37.81],[140.855,37.838]],[[140.85,37.799],[140.853,37.81]],[[140.841,37.791],[140.85,37.799]],[[140.825,37.786],[140.841,37.791]],[[140.778,37.786],[140.825,37.786]],[[140.775,37.784],[140.778,37.786]],[[140.775,37.784],[140.785,37.775]],[[140.779,37.77],[140.785,37.775]],[[140.764,37.77],[140.779,37.77]],[[140.733,37.777],[140.764,37.77]],[[140.695,37.799],[140.733,37.777]],[[140.687,37.808],[140.695,37.799]],[[140.683,37.816],[140.687,37.808]],[[140.681,37.824],[140.683,37.816]],[[140.681,37.824],[140.683,37.847]],[[140.679,37.86],[140.683,37.847]],[[140.67,37.872],[140.679,37.86]],[[140.652,37.883],[140.67,37.872]],[[140.632,37.887],[140.652,37.883]],[[140.614,37.894],[140.632,37.887]],[[140.575,37.903],[140.614,37.894]],[[140.517,37.893],[140.575,37.903]],[[140.508,37.893],[140.517,37.893]],[[140.498,37.895],[140.508,37.893]],[[140.485,37.903],[140.498,37.895]],[[140.469,37.925],[140.485,37.903]],[[140.458,37.936],[140.469,37.925]],[[140.443,37.943],[140.458,37.936]],[[140.405,37.955],[140.443,37.943]],[[140.39,37.954],[140.405,37.955]],[[140.353,37.946],[140.39,37.954]],[[140.321,37.946],[140.353,37.946]],[[140.27,37.964],[140.321,37.946]],[[140.698,36.869],[140.797,36.846]],[[140.688,36.874],[140.698,36.869]],[[140.614,36.896],[140.688,36.874]],[[140.599,36.905],[140.614,36.896]],[[140.588,36.915],[140.599,36.905]],[[140.583,36.922],[140.588,36.915]],[[140.576,36.927],[140.583,36.922]],[[140.57,36.926],[140.576,36.927]],[[140.561,36.918],[140.57,36.926]],[[140.56,36.908],[140.561,36.918]],[[140.56,36.908],[140.561,36.897]],[[140.561,36.897],[140.567,36.883]],[[140.567,36.883],[140.57,36.871]],[[140.565,36.863],[140.57,36.871]],[[140.532,36.846],[140.565,36.863]],[[140.515,36.83],[140.532,36.846]],[[140.506,36.82],[140.515,36.83]],[[140.497,36.813],[140.506,36.82]],[[140.481,36.797],[140.497,36.813]],[[140.469,36.792],[140.481,36.797]],[[140.45,36.795],[140.469,36.792]],[[140.407,36.816],[140.45,36.795]],[[140.379,36.836],[140.407,36.816]],[[140.354,36.857],[140.379,36.836]],[[140.328,36.874],[140.354,36.857]],[[140.306,36.894],[140.328,36.874]],[[140.286,36.906],[140.306,36.894]],[[140.237,36.925],[140.286,36.906]],[[140.237,36.925],[140.241,36.943]],[[140.235,36.99],[140.241,36.943]],[[140.231,37.0],[140.235,36.99]],[[140.23,37.001],[140.231,37.0]],[[140.229,37.002],[140.23,37.001]],[[140.225,37.004],[140.229,37.002]],[[140.207,37.012],[140.225,37.004]],[[140.199,37.02],[140.207,37.012]],[[140.194,37.031],[140.199,37.02]],[[140.191,37.043],[140.194,37.031]],[[140.185,37.053],[140.191,37.043]],[[140.176,37.059],[140.185,37.053]],[[140.164,37.066],[140.176,37.059]],[[140.113,37.098],[140.164,37.066]],[[140.098,37.106],[140.113,37.098]],[[139.958,37.139],[140.098,37.106]],[[139.917,37.144],[139.958,37.139]],[[139.886,37.139],[139.917,37.144]],[[139.861,37.13],[139.886,37.139]],[[139.822,37.106],[139.861,37.13]],[[139.791,37.081],[139.822,37.106]],[[139.764,37.08],[139.791,37.081]],[[139.747,37.077],[139.764,37.08]],[[139.679,37.053],[139.747,37.077]],[[139.51,36.975],[139.679,37.053]],[[139.463,36.963],[139.51,36.975]],[[139.446,36.956],[139.463,36.963]],[[139.408,36.925],[139.446,36.956]],[[139.36,36.902],[139.408,36.925]],[[139.272,36.92],[139.36,36.902]],[[139.247,36.92],[139.272,36.92]],[[139.226,36.925],[139.247,36.92]],[[139.217,36.93],[139.226,36.925]],[[139.215,36.946],[139.217,36.93]],[[140.857,35.732],[140.859,35.735]],[[140.825,35.735],[140.857,35.732]],[[140.799,35.744],[140.825,35.735]],[[140.777,35.757],[140.799,35.744]],[[140.755,35.774],[140.777,35.757]],[[140.711,35.82],[140.755,35.774]],[[140.693,35.833],[140.711,35.82]],[[140.671,35.842],[140.693,35.833]],[[140.626,35.854],[140.671,35.842]],[[140.57,35.884],[140.626,35.854]],[[140.551,35.889],[140.57,35.884]],[[140.461,35.892],[140.551,35.889]],[[140.393,35.885],[140.461,35.892]],[[140.368,35.878],[140.393,35.885]],[[140.346,35.855],[140.368,35.878]],[[140.32,35.851],[140.346,35.855]],[[140.19,35.843],[140.32,35.851]],[[140.17,35.844],[140.19,35.843]],[[140.127,35.854],[140.17,35.844]],[[139.97,35.914],[140.127,35.854]],[[139.932,35.938],[139.97,35.914]],[[139.866,36.005],[139.932,35.938]],[[139.805,36.078],[139.866,36.005]],[[139.792,36.075],[139.805,36.078]],[[139.772,36.08],[139.792,36.075]],[[139.753,36.08],[139.772,36.08]],[[139.733,36.085],[139.753,36.08]],[[139.724,36.089],[139.733,36.085]],[[139.711,36.098],[139.724,36.089]],[[139.686,36.125],[139.711,36.098]],[[139.679,36.141],[139.686,36.125]],[[139.674,36.152],[139.679,36.141]],[[139.654,36.203],[139.674,36.152]],[[139.654,36.203],[139.668,36.201]],[[139.668,36.201],[139.677,36.201]],[[139.677,36.201],[139.704,36.205]],[[139.704,36.205],[139.746,36.218]],[[139.746,36.218],[139.782,36.234]],[[139.782,36.234],[139.792,36.242]],[[139.792,36.242],[139.806,36.266]],[[139.806,36.266],[139.817,36.28]],[[139.817,36.28],[139.84,36.3]],[[139.84,36.3],[139.859,36.305]],[[139.859,36.305],[139.874,36.304]],[[139.874,36.304],[139.883,36.305]],[[139.883,36.305],[139.895,36.309]],[[139.895,36.309],[139.907,36.327]],[[139.907,36.327],[139.954,36.362]],[[139.954,36.362],[139.965,36.367]],[[139.965,36.367],[139.976,36.368]],[[139.976,36.368],[139.994,36.365]],[[139.994,36.365],[140.003,36.364]],[[140.003,36.364],[140.014,36.365]],[[140.014,36.365],[140.039,36.373]],[[140.039,36.373],[140.055,36.383]],[[140.055,36.383],[140.086,36.392]],[[140.086,36.392],[140.114,36.396]],[[140.114,36.396],[140.144,36.391]],[[140.144,36.391],[140.157,36.393]],[[140.157,36.393],[140.17,36.402]],[[140.17,36.402],[140.181,36.415]],[[140.181,36.415],[140.2,36.459]],[[140.2,36.459],[140.21,36.476]],[[140.21,36.476],[140.23,36.5]],[[140.23,36.5],[140.235,36.517]],[[140.235,36.517],[140.238,36.541]],[[140.23,36.624],[140.238,36.541]],[[140.222,36.66],[140.23,36.624]],[[140.221,36.677],[140.222,36.66]],[[140.221,36.677],[140.228,36.689]],[[140.228,36.689],[140.242,36.7]],[[140.242,36.7],[140.259,36.709]],[[140.259,36.709],[140.267,36.719]],[[140.255,36.744],[140.267,36.719]],[[140.251,36.761],[140.255,36.744]],[[140.251,36.761],[140.251,36.809]],[[140.246,36.842],[140.251,36.809]],[[140.246,36.842],[140.247,36.86]],[[140.245,36.876],[140.247,36.86]],[[140.24,36.896],[140.245,36.876]],[[140.237,36.925],[140.24,36.896]],[[139.864,35.632],[139.877,35.661]],[[139.877,35.661],[139.881,35.673]],[[139.881,35.673],[139.886,35.698]],[[139.864,35.778],[139.886,35.698]],[[139.864,35.778],[139.875,35.85]],[[139.872,35.869],[139.875,35.85]],[[139.867,35.889],[139.872,35.869]],[[139.858,35.901],[139.867,35.889]],[[139.839,35.923],[139.858,35.901]],[[139.831,35.938],[139.839,35.923]],[[139.796,36.019],[139.831,35.938]],[[139.786,36.037],[139.796,36.019]],[[139.753,36.08],[139.786,36.037]],[[139.785,35.512],[139.787,35.512]],[[139.698,35.538],[139.785,35.512]],[[139.668,35.555],[139.698,35.538]],[[139.663,35.559],[139.668,35.555]],[[139.655,35.564],[139.663,35.559]],[[139.539,35.613],[139.655,35.564]],[[139.527,35.614],[139.539,35.613]],[[139.514,35.611],[139.527,35.614]],[[139.503,35.608],[139.514,35.611]],[[139.496,35.603],[139.503,35.608]],[[139.492,35.597],[139.496,35.603]],[[139.488,35.592],[139.492,35.597]],[[139.48,35.591],[139.488,35.592]],[[139.462,35.599],[139.48,35.591]],[[139.454,35.597],[139.462,35.599]],[[139.453,35.592],[139.454,35.597]],[[139.453,35.592],[139.46,35.586]],[[139.46,35.586],[139.485,35.566]],[[139.485,35.566],[139.49,35.559]],[[139.489,35.555],[139.49,35.559]],[[139.485,35.55],[139.489,35.555]],[[139.476,35.55],[139.485,35.55]],[[139.472,35.542],[139.476,35.55]],[[139.472,35.542],[139.475,35.508]],[[139.474,35.499],[139.475,35.508]],[[139.473,35.494],[139.474,35.499]],[[139.471,35.49],[139.473,35.494]],[[139.467,35.489],[139.471,35.49]],[[139.463,35.49],[139.467,35.489]],[[139.458,35.493],[139.463,35.49]],[[139.426,35.528],[139.458,35.493]],[[139.417,35.54],[139.426,35.528]],[[139.399,35.556],[139.417,35.54]],[[139.377,35.567],[139.399,35.556]],[[139.342,35.573],[139.377,35.567]],[[139.298,35.575],[139.342,35.573]],[[139.266,35.582],[139.298,35.575]],[[139.245,35.592],[139.266,35.582]],[[139.204,35.624],[139.245,35.592]],[[139.183,35.631],[139.204,35.624]],[[139.147,35.65],[139.183,35.631]],[[139.122,35.654],[139.147,35.65]],[[139.036,35.696],[139.122,35.654]],[[138.993,35.733],[139.036,35.696]],[[138.981,35.747],[138.993,35.733]],[[138.971,35.762],[138.981,35.747]],[[138.947,35.817],[138.971,35.762]],[[138.923,35.835],[138.947,35.817]],[[138.923,35.835],[138.953,35.858]],[[138.953,35.858],[138.994,35.877]],[[138.994,35.877],[139.004,35.879]],[[139.004,35.879],[139.014,35.877]],[[139.014,35.877],[139.046,35.859]],[[139.046,35.859],[139.06,35.853]],[[139.06,35.853],[139.272,35.809]],[[139.272,35.809],[139.29,35.802]],[[139.29,35.802],[139.384,35.755]],[[139.384,35.755],[139.411,35.752]],[[139.411,35.752],[139.434,35.752]],[[139.434,35.752],[139.453,35.756]],[[139.453,35.756],[139.467,35.761]],[[139.467,35.761],[139.493,35.774]],[[139.493,35.774],[139.507,35.778]],[[139.507,35.778],[139.517,35.778]],[[139.517,35.778],[139.523,35.775]],[[139.523,35.775],[139.526,35.767]],[[139.526,35.767],[139.529,35.759]],[[139.529,35.759],[139.536,35.752]],[[139.536,35.752],[139.604,35.759]],[[139.604,35.759],[139.615,35.767]],[[139.615,35.767],[139.626,35.773]],[[139.626,35.773],[139.641,35.777]],[[139.641,35.777],[139.706,35.776]],[[139.706,35.776],[139.715,35.776]],[[139.715,35.776],[139.721,35.778]],[[139.721,35.778],[139.731,35.787]],[[139.731,35.787],[139.74,35.791]],[[139.74,35.791],[139.758,35.795]],[[139.758,35.795],[139.805,35.79]],[[139.805,35.79],[139.864,35.778]],[[139.073,35.125],[139.094,35.117]],[[139.052,35.129],[139.073,35.125]],[[139.029,35.136],[139.052,35.129]],[[139.019,35.141],[139.029,35.136]],[[139.012,35.147],[139.019,35.141]],[[139.003,35.158],[139.012,35.147]],[[138.984,35.183],[139.003,35.158]],[[138.974,35.205],[138.984,35.183]],[[138.969,35.23],[138.974,35.205]],[[138.969,35.23],[138.971,35.25]],[[138.971,35.25],[138.977,35.262]],[[138.977,35.262],[138.993,35.277]],[[138.993,35.277],[138.998,35.285]],[[138.998,35.285],[139.0,35.291]],[[139.0,35.291],[139.0,35.301]],[[138.999,35.313],[139.0,35.301]],[[138.994,35.334],[138.999,35.313]],[[138.99,35.342],[138.994,35.334]],[[138.988,35.348],[138.99,35.342]],[[138.987,35.356],[138.988,35.348]],[[138.987,35.356],[138.988,35.374]],[[138.987,35.381],[138.988,35.374]],[[138.975,35.387],[138.987,35.381]],[[138.965,35.388],[138.975,35.387]],[[138.9,35.381],[138.965,35.388]],[[138.9,35.381],[138.906,35.401]],[[138.906,35.401],[138.933,35.437]],[[138.933,35.437],[138.952,35.45]],[[138.952,35.45],[138.97,35.458]],[[138.97,35.458],[138.991,35.465]],[[138.991,35.465],[139.08,35.505]],[[139.08,35.505],[139.091,35.514]],[[139.091,35.514],[139.099,35.526]],[[139.099,35.526],[139.106,35.539]],[[139.106,35.539],[139.117,35.585]],[[139.117,35.585],[139.118,35.598]],[[139.114,35.631],[139.118,35.598]],[[139.114,35.631],[139.122,35.654]],[[137.468,34.671],[137.469,34.687]],[[137.468,34.693],[137.469,34.687]],[[137.465,34.707],[137.468,34.693]],[[137.463,34.725],[137.465,34.707]],[[137.463,34.725],[137.467,34.752]],[[137.467,34.752],[137.472,34.771]],[[137.472,34.771],[137.488,34.81]],[[137.488,34.81],[137.498,34.82]],[[137.498,34.82],[137.512,34.826]],[[137.512,34.826],[137.564,34.838]],[[137.564,34.838],[137.572,34.841]],[[137.572,34.841],[137.579,34.845]],[[137.579,34.845],[137.609,34.869]],[[137.609,34.869],[137.618,34.879]],[[137.618,34.879],[137.625,34.897]],[[137.625,34.897],[137.633,34.912]],[[137.633,34.912],[137.67,34.947]],[[137.67,34.947],[137.676,34.961]],[[137.676,34.961],[137.685,35.003]],[[137.685,35.003],[137.698,35.018]],[[137.698,35.018],[137.753,35.063]],[[137.753,35.063],[137.77,35.081]],[[137.77,35.081],[137.787,35.113]],[[137.787,35.113],[137.796,35.136]],[[137.796,35.136],[137.798,35.162]],[[137.798,35.162],[137.806,35.195]],[[137.806,35.195],[137.838,35.205]],[[137.838,35.205],[137.875,35.236]],[[137.875,35.236],[137.896,35.243]],[[137.896,35.243],[137.94,35.273]],[[137.94,35.273],[137.959,35.282]],[[137.959,35.282],[137.985,35.287]],[[137.985,35.287],[137.996,35.291]],[[137.996,35.291],[138.005,35.297]],[[138.005,35.297],[138.015,35.308]],[[138.015,35.308],[138.028,35.319]],[[138.028,35.319],[138.039,35.324]],[[138.039,35.324],[138.068,35.33]],[[138.068,35.33],[138.086,35.337]],[[138.086,35.337],[138.113,35.357]],[[138.113,35.357],[138.123,35.371]],[[138.123,35.371],[138.127,35.385]],[[138.124,35.394],[138.127,35.385]],[[138.118,35.404],[138.124,35.394]],[[138.111,35.414],[138.118,35.404]],[[138.109,35.424],[138.111,35.414]],[[138.109,35.424],[138.113,35.434]],[[138.113,35.434],[138.131,35.448]],[[138.131,35.448],[138.139,35.46]],[[138.139,35.46],[138.14,35.47]],[[138.137,35.48],[138.14,35.47]],[[138.134,35.492],[138.137,35.48]],[[138.134,35.492],[138.138,35.51]],[[138.138,35.51],[138.14,35.523]],[[138.139,35.535],[138.14,35.523]],[[138.136,35.547],[138.139,35.535]],[[138.136,35.547],[138.143,35.561]],[[138.143,35.561],[138.154,35.567]],[[138.154,35.567],[138.169,35.571]],[[138.169,35.571],[138.177,35.579]],[[138.177,35.579],[138.182,35.587]],[[138.182,35.587],[138.187,35.607]],[[138.187,35.607],[138.196,35.628]],[[138.196,35.628],[138.214,35.612]],[[138.214,35.612],[138.217,35.602]],[[138.217,35.602],[138.222,35.573]],[[138.222,35.573],[138.237,35.535]],[[138.237,35.535],[138.241,35.518]],[[138.241,35.518],[138.243,35.475]],[[138.241,35.464],[138.243,35.475]],[[138.235,35.444],[138.241,35.464]],[[138.234,35.434],[138.235,35.444]],[[138.234,35.434],[138.238,35.408]],[[138.235,35.393],[138.238,35.408]],[[138.227,35.368],[138.235,35.393]],[[138.226,35.356],[138.227,35.368]],[[138.226,35.356],[138.23,35.344]],[[138.23,35.344],[138.232,35.334]],[[138.231,35.324],[138.232,35.334]],[[138.231,35.324],[138.232,35.314]],[[138.232,35.314],[138.236,35.304]],[[138.236,35.304],[138.247,35.297]],[[138.247,35.297],[138.262,35.294]],[[138.262,35.294],[138.284,35.299]],[[138.284,35.299],[138.305,35.302]],[[138.305,35.302],[138.328,35.3]],[[138.328,35.3],[138.343,35.292]],[[138.343,35.292],[138.353,35.278]],[[138.353,35.278],[138.367,35.219]],[[138.367,35.219],[138.375,35.204]],[[138.375,35.204],[138.383,35.19]],[[138.383,35.19],[138.398,35.181]],[[138.398,35.181],[138.419,35.165]],[[138.419,35.165],[138.43,35.159]],[[138.43,35.159],[138.443,35.157]],[[138.443,35.157],[138.458,35.157]],[[138.458,35.157],[138.472,35.162]],[[138.472,35.162],[138.487,35.172]],[[138.487,35.172],[138.498,35.182]],[[138.498,35.182],[138.503,35.188]],[[138.503,35.188],[138.507,35.194]],[[138.507,35.194],[138.509,35.199]],[[138.509,35.199],[138.511,35.207]],[[138.51,35.219],[138.511,35.207]],[[138.507,35.231],[138.51,35.219]],[[138.504,35.257],[138.507,35.231]],[[138.504,35.257],[138.506,35.294]],[[138.506,35.294],[138.516,35.33]],[[138.516,35.33],[138.523,35.381]],[[138.523,35.381],[138.528,35.397]],[[138.528,35.397],[138.534,35.41]],[[138.534,35.41],[138.543,35.417]],[[138.543,35.417],[138.556,35.417]],[[138.556,35.417],[138.593,35.392]],[[138.593,35.392],[138.613,35.384]],[[138.613,35.384],[138.635,35.381]],[[138.635,35.381],[138.648,35.374]],[[138.648,35.374],[138.657,35.365]],[[138.657,35.365],[138.672,35.356]],[[138.672,35.356],[138.697,35.351]],[[138.697,35.351],[138.83,35.365]],[[138.83,35.365],[138.9,35.381]],[[136.736,35.042],[136.752,35.026]],[[136.725,35.059],[136.736,35.042]],[[136.71,35.091],[136.725,35.059]],[[136.698,35.107],[136.71,35.091]],[[136.684,35.121],[136.698,35.107]],[[136.673,35.139],[136.684,35.121]],[[136.673,35.139],[136.677,35.216]],[[136.677,35.216],[136.68,35.236]],[[136.68,35.236],[136.726,35.291]],[[136.726,35.291],[136.753,35.339]],[[136.753,35.339],[136.761,35.348]],[[136.761,35.348],[136.771,35.352]],[[136.771,35.352],[136.776,35.347]],[[136.776,35.347],[136.79,35.341]],[[136.79,35.341],[136.797,35.341]],[[136.797,35.341],[136.806,35.342]],[[136.806,35.342],[136.829,35.353]],[[136.829,35.353],[136.849,35.36]],[[136.849,35.36],[136.91,35.371]],[[136.91,35.371],[136.932,35.38]],[[136.932,35.38],[136.94,35.382]],[[136.94,35.382],[136.953,35.384]],[[136.953,35.384],[136.965,35.381]],[[136.965,35.381],[136.992,35.364]],[[136.992,35.364],[137.013,35.354]],[[137.013,35.354],[137.021,35.348]],[[137.021,35.348],[137.026,35.339]],[[137.026,35.339],[137.032,35.326]],[[137.032,35.326],[137.036,35.321]],[[137.036,35.321],[137.041,35.317]],[[137.041,35.317],[137.051,35.311]],[[137.051,35.311],[137.059,35.304]],[[137.059,35.304],[137.071,35.285]],[[137.071,35.285],[137.079,35.28]],[[137.079,35.28],[137.087,35.278]],[[137.087,35.278],[137.103,35.276]],[[137.103,35.276],[137.115,35.272]],[[137.115,35.272],[137.127,35.267]],[[137.127,35.267],[137.159,35.246]],[[137.159,35.246],[137.169,35.242]],[[137.169,35.242],[137.18,35.24]],[[137.18,35.24],[137.2,35.241]],[[137.2,35.241],[137.264,35.266]],[[137.264,35.266],[137.28,35.269]],[[137.28,35.269],[137.293,35.268]],[[137.293,35.268],[137.335,35.249]],[[137.335,35.249],[137.356,35.243]],[[137.356,35.243],[137.37,35.237]],[[137.37,35.237],[137.392,35.221]],[[137.392,35.221],[137.407,35.215]],[[137.407,35.215],[137.422,35.216]],[[137.422,35.216],[137.467,35.232]],[[137.467,35.232],[137.49,35.246]],[[137.49,35.246],[137.5,35.253]],[[137.5,35.253],[137.548,35.27]],[[137.539,35.237],[137.548,35.27]],[[137.539,35.237],[137.556,35.202]],[[137.556,35.202],[137.565,35.193]],[[137.565,35.193],[137.575,35.188]],[[137.575,35.188],[137.588,35.188]],[[137.588,35.188],[137.617,35.193]],[[137.617,35.193],[137.63,35.198]],[[137.63,35.198],[137.643,35.205]],[[137.643,35.205],[137.662,35.209]],[[137.662,35.209],[137.682,35.209]],[[137.682,35.209],[137.751,35.196]],[[137.751,35.196],[137.806,35.195]],[[135.967,33.699],[135.994,33.686]],[[135.951,33.704],[135.967,33.699]],[[135.938,33.714],[135.951,33.704]],[[135.929,33.724],[135.938,33.714]],[[135.92,33.736],[135.929,33.724]],[[135.902,33.748],[135.92,33.736]],[[135.863,33.787],[135.902,33.748]],[[135.852,33.803],[135.863,33.787]],[[135.847,33.817],[135.852,33.803]],[[135.847,33.817],[135.847,33.825]],[[135.847,33.825],[135.848,33.838]],[[135.848,33.838],[135.875,33.851]],[[135.875,33.851],[135.883,33.863]],[[135.883,33.863],[135.891,33.883]],[[135.891,33.883],[135.9,33.889]],[[135.9,33.889],[135.915,33.889]],[[135.915,33.889],[135.921,33.893]],[[135.921,33.893],[135.926,33.901]],[[135.926,33.901],[135.958,33.918]],[[135.958,33.918],[135.974,33.937]],[[135.974,33.937],[135.985,33.953]],[[135.985,33.953],[135.991,33.97]],[[135.991,33.97],[136.004,33.993]],[[136.004,33.993],[136.018,34.005]],[[136.018,34.005],[136.035,34.011]],[[136.035,34.011],[136.087,34.009]],[[136.087,34.009],[136.098,34.012]],[[136.098,34.012],[136.101,34.018]],[[136.091,34.036],[136.101,34.018]],[[136.086,34.05],[136.091,34.036]],[[136.086,34.05],[136.109,34.126]],[[136.109,34.126],[136.11,34.139]],[[136.107,34.189],[136.11,34.139]],[[136.107,34.189],[136.118,34.228]],[[136.118,34.228],[136.119,34.241]],[[136.113,34.255],[136.119,34.241]],[[136.104,34.269],[136.113,34.255]],[[136.101,34.283],[136.104,34.269]],[[136.101,34.283],[136.106,34.292]],[[136.106,34.292],[136.108,34.301]],[[136.082,34.351],[136.108,34.301]],[[136.074,34.364],[136.082,34.351]],[[136.069,34.377],[136.074,34.364]],[[136.069,34.377],[136.071,34.394]],[[136.071,34.394],[136.081,34.409]],[[136.081,34.409],[136.096,34.42]],[[136.096,34.42],[136.114,34.425]],[[136.114,34.425],[136.157,34.431]],[[136.157,34.431],[136.178,34.439]],[[136.178,34.439],[136.203,34.459]],[[136.203,34.459],[136.21,34.472]],[[136.21,34.472],[136.211,34.486]],[[136.208,34.495],[136.211,34.486]],[[136.203,34.502],[136.208,34.495]],[[136.181,34.504],[136.203,34.502]],[[136.171,34.509],[136.181,34.504]],[[136.162,34.528],[136.171,34.509]],[[136.154,34.534],[136.162,34.528]],[[136.142,34.536],[136.154,34.534]],[[136.129,34.535],[136.142,34.536]],[[136.114,34.536],[136.129,34.535]],[[136.097,34.542],[136.114,34.536]],[[136.076,34.552],[136.097,34.542]],[[136.06,34.563],[136.076,34.552]],[[136.052,34.575],[136.06,34.563]],[[136.052,34.575],[136.054,34.589]],[[136.054,34.589],[136.059,34.606]],[[136.058,34.619],[136.059,34.606]],[[136.053,34.626],[136.058,34.619]],[[136.041,34.634],[136.053,34.626]],[[136.038,34.637],[136.041,34.634]],[[136.038,34.637],[136.04,34.641]],[[136.04,34.641],[136.063,34.647]],[[136.063,34.647],[136.072,34.656]],[[136.065,34.677],[136.072,34.656]],[[136.063,34.692],[136.065,34.677]],[[136.059,34.703],[136.063,34.692]],[[136.055,34.708],[136.059,34.703]],[[136.05,34.712],[136.055,34.708]],[[136.036,34.715],[136.05,34.712]],[[136.003,34.774],[136.082,34.801]],[[136.082,34.801],[136.101,34.819]],[[136.101,34.819],[136.113,34.833]],[[136.1,34.854],[136.113,34.833]],[[136.1,34.854],[136.102,34.865]],[[136.102,34.865],[136.113,34.871]],[[136.113,34.871],[136.125,34.872]],[[136.125,34.872],[136.18,34.863]],[[136.18,34.863],[136.241,34.863]],[[136.241,34.863],[136.312,34.879]],[[136.312,34.879],[136.343,34.893]],[[136.343,34.893],[136.362,34.906]],[[136.362,34.906],[136.37,34.916]],[[136.37,34.916],[136.382,34.926]],[[136.382,34.926],[136.392,34.937]],[[136.392,34.937],[136.4,34.949]],[[136.4,34.949],[136.407,34.967]],[[136.407,34.967],[136.412,34.982]],[[136.412,34.982],[136.418,35.022]],[[136.418,35.022],[136.432,35.062]],[[136.432,35.062],[136.443,35.132]],[[136.442,35.141],[136.443,35.132]],[[136.436,35.151],[136.442,35.141]],[[136.407,35.183],[136.436,35.151]],[[136.399,35.203],[136.407,35.183]],[[136.399,35.203],[136.515,35.232]],[[136.515,35.232],[136.528,35.229]],[[136.528,35.229],[136.539,35.223]],[[136.539,35.223],[136.549,35.204]],[[136.549,35.204],[136.558,35.194]],[[136.558,35.194],[136.585,35.174]],[[136.585,35.174],[136.618,35.158]],[[136.618,35.158],[136.673,35.139]],[[135.085,34.299],[135.1,34.281]],[[135.1,34.281],[135.121,34.276]],[[135.121,34.276],[135.188,34.274]],[[135.188,34.274],[135.313,34.297]],[[135.313,34.297],[135.333,34.305]],[[135.333,34.305],[135.457,34.335]],[[135.457,34.335],[135.479,34.335]],[[135.479,34.335],[135.493,34.332]],[[135.493,34.332],[135.509,34.331]],[[135.509,34.331],[135.525,34.335]],[[135.525,34.335],[135.601,34.368]],[[135.601,34.368],[135.647,34.372]],[[135.647,34.372],[135.659,34.323]],[[135.659,34.323],[135.663,34.285]],[[135.663,34.285],[135.669,34.273]],[[135.669,34.273],[135.694,34.249]],[[135.694,34.249],[135.709,34.225]],[[135.708,34.213],[135.709,34.225]],[[135.701,34.206],[135.708,34.213]],[[135.661,34.204],[135.701,34.206]],[[135.65,34.201],[135.661,34.204]],[[135.64,34.193],[135.65,34.201]],[[135.633,34.185],[135.64,34.193]],[[135.615,34.157],[135.633,34.185]],[[135.587,34.129],[135.615,34.157]],[[135.575,34.112],[135.587,34.129]],[[135.551,34.082],[135.575,34.112]],[[135.543,34.065],[135.551,34.082]],[[135.543,34.065],[135.546,34.051]],[[135.546,34.051],[135.554,34.042]],[[135.554,34.042],[135.565,34.036]],[[135.565,34.036],[135.571,34.029]],[[135.571,34.029],[135.58,34.016]],[[135.58,34.016],[135.585,33.998]],[[135.585,33.998],[135.606,33.977]],[[135.606,33.977],[135.613,33.955]],[[135.611,33.937],[135.613,33.955]],[[135.604,33.917],[135.611,33.937]],[[135.598,33.89],[135.604,33.917]],[[135.598,33.89],[135.603,33.875]],[[135.603,33.875],[135.609,33.864]],[[135.609,33.864],[135.619,33.857]],[[135.619,33.857],[135.628,33.856]],[[135.628,33.856],[135.637,33.859]],[[135.637,33.859],[135.654,33.873]],[[135.654,33.873],[135.668,33.878]],[[135.668,33.878],[135.682,33.88]],[[135.682,33.88],[135.696,33.879]],[[135.696,33.879],[135.736,33.87]],[[135.736,33.87],[135.747,33.869]],[[135.747,33.869],[135.758,33.871]],[[135.758,33.871],[135.771,33.875]],[[135.771,33.875],[135.785,33.879]],[[135.785,33.879],[135.801,33.877]],[[135.801,33.877],[135.817,33.872]],[[135.817,33.872],[135.848,33.838]],[[135.685,34.706],[135.706,34.76]],[[135.674,34.69],[135.685,34.706]],[[135.668,34.675],[135.674,34.69]],[[135.647,34.601],[135.668,34.675]],[[135.622,34.553],[135.647,34.601]],[[135.622,34.553],[135.623,34.544]],[[135.623,34.544],[135.627,34.538]],[[135.627,34.538],[135.641,34.527]],[[135.641,34.527],[135.651,34.517]],[[135.651,34.517],[135.665,34.493]],[[135.665,34.493],[135.674,34.464]],[[135.674,34.464],[135.677,34.448]],[[135.675,34.433],[135.677,34.448]],[[135.669,34.408],[135.675,34.433]],[[135.669,34.408],[135.671,34.389]],[[135.665,34.381],[135.671,34.389]],[[135.66,34.375],[135.665,34.381]],[[135.647,34.372],[135.66,34.375]],[[133.443,34.473],[133.447,34.488]],[[133.447,34.488],[133.449,34.509]],[[133.447,34.518],[133.449,34.509]],[[133.441,34.53],[133.447,34.518]],[[133.428,34.553],[133.441,34.53]],[[133.406,34.581],[133.428,34.553]],[[133.398,34.593],[133.406,34.581]],[[133.393,34.608],[133.398,34.593]],[[133.393,34.608],[133.393,34.649]],[[133.372,34.689],[133.393,34.649]],[[133.365,34.708],[133.372,34.689]],[[133.364,34.729],[133.365,34.708]],[[133.364,34.729],[133.364,34.75]],[[133.364,34.75],[133.366,34.767]],[[133.366,34.767],[133.366,34.78]],[[133.362,34.793],[133.366,34.78]],[[133.323,34.844],[133.362,34.793]],[[133.316,34.858],[133.323,34.844]],[[133.31,34.877],[133.316,34.858]],[[133.307,34.909],[133.31,34.877]],[[133.307,34.909],[133.307,34.933]],[[133.307,34.933],[133.31,34.967]],[[133.304,34.997],[133.31,34.967]],[[133.264,35.051],[133.304,34.997]],[[139.34,36.872],[139.36,36.902]],[[139.336,36.86],[139.34,36.872]],[[139.336,36.86],[139.339,36.849]],[[139.339,36.849],[139.351,36.837]],[[139.351,36.837],[139.361,36.83]],[[139.361,36.83],[139.368,36.823]],[[139.368,36.823],[139.369,36.814]],[[139.367,36.808],[139.369,36.814]],[[139.359,36.8],[139.367,36.808]],[[139.352,36.79],[139.359,36.8]],[[139.342,36.781],[139.352,36.79]],[[139.333,36.769],[139.342,36.781]],[[139.329,36.757],[139.333,36.769]],[[139.329,36.757],[139.33,36.719]],[[139.326,36.705],[139.33,36.719]],[[139.313,36.676],[139.326,36.705]],[[139.307,36.659],[139.313,36.676]],[[139.306,36.645],[139.307,36.659]],[[139.306,36.645],[139.312,36.632]],[[139.312,36.632],[139.341,36.615]],[[139.341,36.615],[139.354,36.61]],[[139.354,36.61],[139.364,36.607]],[[139.364,36.607],[139.423,36.6]],[[139.423,36.6],[139.436,36.595]],[[139.436,36.595],[139.446,36.586]],[[139.446,36.586],[139.448,36.573]],[[139.445,36.562],[139.448,36.573]],[[139.439,36.552],[139.445,36.562]],[[139.427,36.544],[139.439,36.552]],[[139.419,36.533],[139.427,36.544]],[[139.416,36.526],[139.419,36.533]],[[139.412,36.518],[139.416,36.526]],[[139.403,36.508],[139.412,36.518]],[[139.397,36.498],[139.403,36.508]],[[139.393,36.487],[139.397,36.498]],[[139.391,36.475],[139.393,36.487]],[[139.384,36.459],[139.391,36.475]],[[139.378,36.444],[139.384,36.459]],[[139.363,36.422],[139.378,36.444]],[[139.356,36.415],[139.363,36.422]],[[139.345,36.402],[139.356,36.415]],[[139.341,36.396],[139.345,36.402]],[[139.338,36.389],[139.341,36.396]],[[139.337,36.379],[139.338,36.389]],[[139.337,36.379],[139.338,36.369]],[[139.338,36.369],[139.344,36.359]],[[139.344,36.359],[139.354,36.348]],[[139.354,36.348],[139.384,36.323]],[[139.384,36.323],[139.391,36.311]],[[139.391,36.311],[139.401,36.3]],[[139.401,36.3],[139.424,36.279]],[[139.424,36.279],[139.441,36.268]],[[139.441,36.268],[139.455,36.269]],[[139.455,36.269],[139.468,36.273]],[[139.468,36.273],[139.482,36.275]],[[139.482,36.275],[139.503,36.274]],[[139.503,36.274],[139.589,36.26]],[[139.589,36.26],[139.605,36.252]],[[139.605,36.252],[139.638,36.226]],[[139.638,36.226],[139.654,36.203]],[[139.61,36.179],[139.674,36.152]],[[139.563,36.191],[139.61,36.179]],[[139.514,36.193],[139.563,36.191]],[[139.473,36.178],[139.514,36.193]],[[139.444,36.196],[139.473,36.178]],[[139.413,36.212],[139.444,36.196]],[[139.379,36.222],[139.413,36.212]],[[139.304,36.228],[139.379,36.222]],[[139.232,36.242],[139.304,36.228]],[[139.199,36.254],[139.232,36.242]],[[139.193,36.258],[139.199,36.254]],[[139.178,36.258],[139.193,36.258]],[[139.138,36.271],[139.178,36.258]],[[139.112,36.271],[139.138,36.271]],[[139.108,36.269],[139.112,36.271]],[[139.09,36.249],[139.108,36.269]],[[139.05,36.196],[139.09,36.249]],[[139.044,36.187],[139.05,36.196]],[[139.042,36.176],[139.044,36.187]],[[139.042,36.164],[139.042,36.176]],[[139.041,36.15],[139.042,36.164]],[[139.034,36.139],[139.041,36.15]],[[139.018,36.129],[139.034,36.139]],[[138.957,36.111],[139.018,36.129]],[[138.858,36.073],[138.957,36.111]],[[138.783,36.035],[138.858,36.073]],[[138.764,36.032],[138.783,36.035]],[[138.751,36.027],[138.764,36.032]],[[138.741,36.02],[138.751,36.027]],[[138.736,36.012],[138.741,36.02]],[[138.732,36.002],[138.736,36.012]],[[138.732,36.001],[138.732,36.002]],[[138.732,36.0],[138.732,36.001]],[[138.716,35.981],[138.732,36.0]],[[138.701,35.97],[138.716,35.981]],[[138.628,36.017],[138.701,35.97]],[[138.615,36.031],[138.628,36.017]],[[138.612,36.042],[138.615,36.031]],[[138.612,36.042],[138.615,36.052]],[[138.615,36.052],[138.616,36.063]],[[138.613,36.084],[138.616,36.063]],[[138.613,36.084],[138.614,36.105]],[[138.613,36.116],[138.614,36.105]],[[138.602,36.125],[138.613,36.116]],[[138.59,36.132],[138.602,36.125]],[[138.575,36.143],[138.59,36.132]],[[138.57,36.153],[138.575,36.143]],[[138.568,36.165],[138.57,36.153]],[[138.568,36.165],[138.576,36.17]],[[138.576,36.17],[138.593,36.17]],[[138.593,36.17],[138.6,36.176]],[[138.6,36.176],[138.605,36.186]],[[138.605,36.186],[138.605,36.205]],[[138.595,36.227],[138.605,36.205]],[[138.589,36.255],[138.595,36.227]],[[138.587,36.27],[138.589,36.255]],[[138.587,36.27],[138.593,36.279]],[[138.593,36.279],[138.612,36.29]],[[138.612,36.29],[138.622,36.3]],[[138.622,36.3],[138.63,36.311]],[[138.63,36.311],[138.633,36.324]],[[138.63,36.332],[138.633,36.324]],[[138.628,36.337],[138.63,36.332]],[[138.624,36.384],[138.628,36.337]],[[138.615,36.4],[138.624,36.384]],[[138.601,36.412],[138.615,36.4]],[[138.584,36.417],[138.601,36.412]],[[138.569,36.418],[138.584,36.417]],[[138.554,36.418],[138.569,36.418]],[[138.541,36.414],[138.554,36.418]],[[138.514,36.404],[138.541,36.414]],[[138.499,36.402],[138.514,36.404]],[[138.482,36.403],[138.499,36.402]],[[138.464,36.398],[138.482,36.403]],[[138.451,36.398],[138.464,36.398]],[[138.438,36.4],[138.451,36.398]],[[138.409,36.419],[138.438,36.4]],[[138.389,36.435],[138.409,36.419]],[[138.381,36.448],[138.389,36.435]],[[138.377,36.468],[138.381,36.448]],[[138.377,36.468],[138.379,36.483]],[[138.379,36.483],[138.384,36.503]],[[138.384,36.503],[138.399,36.546]],[[138.399,36.546],[138.405,36.57]],[[138.405,36.57],[138.411,36.581]],[[138.411,36.581],[138.419,36.591]],[[138.419,36.591],[138.424,36.599]],[[138.424,36.599],[138.428,36.608]],[[138.428,36.608],[138.431,36.618]],[[138.431,36.618],[138.437,36.625]],[[138.437,36.625],[138.447,36.631]],[[138.447,36.631],[138.484,36.638]],[[138.484,36.638],[138.494,36.646]],[[138.494,36.646],[138.499,36.656]],[[138.497,36.671],[138.499,36.656]],[[138.497,36.671],[138.499,36.682]],[[138.499,36.682],[138.507,36.689]],[[138.507,36.689],[138.518,36.693]],[[138.518,36.693],[138.542,36.698]],[[138.542,36.698],[138.58,36.702]],[[138.58,36.702],[138.603,36.707]],[[138.603,36.707],[138.614,36.713]],[[138.614,36.713],[138.63,36.718]],[[138.63,36.718],[138.661,36.724]],[[138.661,36.724],[138.68,36.731]],[[138.7,35.95],[138.701,35.97]],[[138.7,35.95],[138.716,35.896]],[[138.663,35.859],[138.716,35.896]],[[138.646,35.854],[138.663,35.859]],[[138.634,35.853],[138.646,35.854]],[[138.623,35.854],[138.634,35.853]],[[138.613,35.858],[138.623,35.854]],[[138.604,35.867],[138.613,35.858]],[[138.6,35.878],[138.604,35.867]],[[138.595,35.886],[138.6,35.878]],[[138.585,35.892],[138.595,35.886]],[[138.573,35.895],[138.585,35.892]],[[138.557,35.896],[138.573,35.895]],[[138.532,35.9],[138.557,35.896]],[[138.519,35.9],[138.532,35.9]],[[138.466,35.888],[138.519,35.9]],[[138.453,35.89],[138.466,35.888]],[[138.444,35.898],[138.453,35.89]],[[138.442,35.908],[138.444,35.898]],[[138.442,35.908],[138.442,35.918]],[[138.441,35.925],[138.442,35.918]],[[138.437,35.933],[138.441,35.925]],[[138.428,35.939],[138.437,35.933]],[[138.399,35.951],[138.428,35.939]],[[138.372,35.957],[138.399,35.951]],[[138.36,35.958],[138.372,35.957]],[[138.35,35.951],[138.36,35.958]],[[138.338,35.939],[138.35,35.951]],[[138.287,35.863],[138.338,35.939]],[[138.279,35.855],[138.287,35.863]],[[138.27,35.849],[138.279,35.855]],[[138.257,35.848],[138.27,35.849]],[[138.235,35.859],[138.257,35.848]],[[138.225,35.858],[138.235,35.859]],[[138.217,35.85],[138.225,35.858]],[[138.18,35.787],[138.217,35.85]],[[138.18,35.778],[138.18,35.787]],[[138.18,35.778],[138.186,35.766]],[[138.186,35.766],[138.198,35.757]],[[138.198,35.757],[138.203,35.747]],[[138.198,35.737],[138.203,35.747]],[[138.174,35.713],[138.198,35.737]],[[138.169,35.699],[138.174,35.713]],[[138.169,35.699],[138.172,35.675]],[[138.172,35.675],[138.182,35.648]],[[138.182,35.648],[138.196,35.628]],[[137.548,35.27],[137.564,35.301]],[[137.564,35.301],[137.573,35.313]],[[137.573,35.313],[137.578,35.328]],[[137.576,35.345],[137.578,35.328]],[[137.564,35.371],[137.576,35.345]],[[137.564,35.371],[137.568,35.379]],[[137.568,35.379],[137.576,35.382]],[[137.576,35.382],[137.598,35.38]],[[137.598,35.38],[137.604,35.385]],[[137.604,35.385],[137.606,35.394]],[[137.593,35.424],[137.606,35.394]],[[137.591,35.436],[137.593,35.424]],[[137.591,35.436],[137.595,35.453]],[[137.595,35.453],[137.595,35.47]],[[137.585,35.495],[137.595,35.47]],[[137.56,35.518],[137.585,35.495]],[[137.54,35.527],[137.56,35.518]],[[137.534,35.53],[137.54,35.527]],[[137.532,35.534],[137.534,35.53]],[[137.528,35.539],[137.532,35.534]],[[137.51,35.59],[137.528,35.539]],[[137.51,35.59],[137.512,35.622]],[[137.511,35.635],[137.512,35.622]],[[137.503,35.647],[137.511,35.635]],[[137.481,35.669],[137.503,35.647]],[[137.472,35.682],[137.481,35.669]],[[137.444,35.733],[137.472,35.682]],[[137.435,35.742],[137.444,35.733]],[[137.424,35.749],[137.435,35.742]],[[137.396,35.756],[137.424,35.749]],[[137.384,35.762],[137.396,35.756]],[[137.378,35.77],[137.384,35.762]],[[137.369,35.777],[137.378,35.77]],[[137.357,35.781],[137.369,35.777]],[[137.333,35.784],[137.357,35.781]],[[137.326,35.79],[137.333,35.784]],[[137.323,35.802],[137.326,35.79]],[[137.323,35.802],[137.338,35.825]],[[137.338,35.825],[137.376,35.869]],[[137.376,35.869],[137.393,35.881]],[[137.393,35.881],[137.411,35.887]],[[137.411,35.887],[137.428,35.886]],[[137.428,35.886],[137.449,35.884]],[[137.449,35.884],[137.463,35.889]],[[137.463,35.889],[137.474,35.9]],[[137.474,35.9],[137.485,35.917]],[[137.485,35.917],[137.52,35.953]],[[137.52,35.953],[137.558,36.001]],[[137.558,36.001],[137.577,36.031]],[[137.577,36.031],[137.582,36.044]],[[137.582,36.044],[137.582,36.057]],[[137.572,36.073],[137.582,36.057]],[[137.558,36.085],[137.572,36.073]],[[137.545,36.1],[137.558,36.085]],[[137.539,36.118],[137.545,36.1]],[[137.539,36.118],[137.546,36.139]],[[137.546,36.139],[137.561,36.166]],[[137.561,36.166],[137.565,36.176]],[[137.562,36.19],[137.565,36.176]],[[137.562,36.19],[137.562,36.198]],[[137.562,36.198],[137.563,36.211]],[[137.563,36.211],[137.572,36.227]],[[137.572,36.227],[137.598,36.251]],[[137.598,36.251],[137.606,36.26]],[[137.606,36.26],[137.612,36.271]],[[137.612,36.271],[137.623,36.3]],[[137.623,36.3],[137.624,36.315]],[[137.618,36.331],[137.624,36.315]],[[137.608,36.347],[137.618,36.331]],[[137.565,36.377],[137.608,36.347]],[[136.376,35.231],[136.399,35.203]],[[136.375,35.266],[136.376,35.231]],[[136.375,35.266],[136.394,35.319]],[[136.394,35.319],[136.398,35.344]],[[136.398,35.344],[136.402,35.357]],[[136.402,35.357],[136.408,35.393]],[[136.397,35.453],[136.408,35.393]],[[136.379,35.501],[136.397,35.453]],[[136.368,35.521],[136.379,35.501]],[[136.359,35.534],[136.368,35.521]],[[136.348,35.536],[136.359,35.534]],[[136.338,35.532],[136.348,35.536]],[[136.326,35.533],[136.338,35.532]],[[136.312,35.542],[136.326,35.533]],[[136.298,35.564],[136.312,35.542]],[[136.293,35.58],[136.298,35.564]],[[136.289,35.6],[136.293,35.58]],[[136.257,35.646],[136.289,35.6]],[[138.869,35.838],[138.923,35.835]],[[138.831,35.845],[138.869,35.838]],[[138.798,35.856],[138.831,35.845]],[[138.716,35.896],[138.798,35.856]]]}}]}